% program   : RTKLIB ver.2.4.2
% inp file  : receiver.obs
% inp file  : broadcast.nav
% obs start : 2026/09/14 21:51:12.0 GPST (week2436 165072.0s)
% obs end   : 2026/09/14 21:54:11.0 GPST (week2436 165251.0s)
% pos mode  : single
% elev mask : 10.0 deg
% ionos opt : broadcast
% tropo opt : saastamoinen
% ephemeris : broadcast
%
% (x/y/z-ecef=WGS84,Q=1:fix,2:float,3:sbas,4:dgps,5:single,6:ppp,ns=# of satellites)
%  GPST                      x-ecef(m)      y-ecef(m)      z-ecef(m)   Q  ns   sdx(m)   sdy(m)   sdz(m)  sdxy(m)  sdyz(m)  sdzx(m) age(s)  ratio
2026/09/14 21:51:12.000   4426044.3482    -89427.7566   4576299.3291   5   8   3.1137   2.0889   4.4034  -1.5162   1.1133   2.5462   0.00    0.0
2026/09/14 21:51:13.000   4426044.4190    -89427.7421   4576299.4592   5   8   3.1138   2.0888   4.4037  -1.5160   1.1135   2.5465   0.00    0.0
2026/09/14 21:51:14.000   4426044.3292    -89427.8091   4576299.3202   5   8   3.1139   2.0887   4.4040  -1.5158   1.1136   2.5469   0.00    0.0
2026/09/14 21:51:15.000   4426044.3559    -89427.8630   4576299.2623   5   8   3.1139   2.0886   4.4043  -1.5155   1.1138   2.5473   0.00    0.0
2026/09/14 21:51:16.000   4426044.2781    -89427.8831   4576299.1815   5   8   3.1140   2.0885   4.4046  -1.5153   1.1139   2.5476   0.00    0.0
2026/09/14 21:51:17.000   4426044.2661    -89427.8364   4576299.3090   5   8   3.1141   2.0883   4.4050  -1.5150   1.1140   2.5480   0.00    0.0
2026/09/14 21:51:18.000   4426044.2116    -89427.8797   4576299.3674   5   8   3.1141   2.0882   4.4053  -1.5148   1.1142   2.5483   0.00    0.0
2026/09/14 21:51:19.000   4426044.3253    -89427.9614   4576299.4206   5   8   3.1142   2.0881   4.4056  -1.5145   1.1143   2.5487   0.00    0.0
2026/09/14 21:51:20.000   4426044.2443    -89427.9531   4576299.3586   5   8   3.1143   2.0880   4.4059  -1.5143   1.1145   2.5491   0.00    0.0
2026/09/14 21:51:21.000   4426044.2851    -89427.9881   4576299.1990   5   8   3.1143   2.0879   4.4062  -1.5141   1.1146   2.5494   0.00    0.0
2026/09/14 21:51:22.000   4426044.1048    -89427.9456   4576298.9809   5   8   3.1144   2.0878   4.4065  -1.5138   1.1148   2.5498   0.00    0.0
2026/09/14 21:51:23.000   4426044.0222    -89427.9493   4576298.9705   5   8   3.1145   2.0877   4.4068  -1.5136   1.1149   2.5501   0.00    0.0
2026/09/14 21:51:24.000   4426043.9874    -89427.9071   4576298.9707   5   8   3.1145   2.0876   4.4071  -1.5133   1.1150   2.5505   0.00    0.0
2026/09/14 21:51:25.000   4426043.8136    -89427.8528   4576298.8375   5   8   3.1146   2.0875   4.4074  -1.5131   1.1152   2.5509   0.00    0.0
2026/09/14 21:51:26.000   4426043.8103    -89427.8115   4576298.9368   5   8   3.1147   2.0874   4.4077  -1.5128   1.1153   2.5512   0.00    0.0
2026/09/14 21:51:27.000   4426043.7958    -89427.8127   4576298.9468   5   8   3.1148   2.0873   4.4080  -1.5126   1.1155   2.5516   0.00    0.0
2026/09/14 21:51:28.000   4426043.7121    -89427.8706   4576298.7957   5   8   3.1148   2.0872   4.4083  -1.5124   1.1156   2.5519   0.00    0.0
2026/09/14 21:51:29.000   4426043.9173    -89427.8880   4576298.8529   5   8   3.1149   2.0871   4.4087  -1.5121   1.1157   2.5523   0.00    0.0
2026/09/14 21:51:30.000   4426044.0762    -89427.9495   4576298.9648   5   8   3.1150   2.0870   4.4090  -1.5119   1.1159   2.5527   0.00    0.0
2026/09/14 21:51:31.000   4426044.0311    -89427.9545   4576298.8619   5   8   3.1150   2.0869   4.4093  -1.5116   1.1160   2.5530   0.00    0.0
2026/09/14 21:51:32.000   4426043.9456    -89427.9946   4576298.8210   5   8   3.1151   2.0868   4.4096  -1.5114   1.1162   2.5534   0.00    0.0
2026/09/14 21:51:33.000   4426043.9926    -89427.9537   4576298.8785   5   8   3.1152   2.0866   4.4099  -1.5111   1.1163   2.5537   0.00    0.0
2026/09/14 21:51:34.000   4426043.9224    -89427.9361   4576298.7921   5   8   3.1152   2.0865   4.4102  -1.5109   1.1164   2.5541   0.00    0.0
2026/09/14 21:51:35.000   4426043.8481    -89427.9211   4576298.7849   5   8   3.1153   2.0864   4.4105  -1.5107   1.1166   2.5545   0.00    0.0
2026/09/14 21:51:36.000   4426043.9760    -89427.9313   4576298.9777   5   8   3.1154   2.0863   4.4108  -1.5104   1.1167   2.5548   0.00    0.0
2026/09/14 21:51:37.000   4426044.1186    -89427.9655   4576299.1026   5   8   3.1154   2.0862   4.4111  -1.5102   1.1169   2.5552   0.00    0.0
2026/09/14 21:51:38.000   4426043.9479    -89427.9535   4576299.0159   5   8   3.1155   2.0861   4.4114  -1.5099   1.1170   2.5555   0.00    0.0
2026/09/14 21:51:39.000   4426043.9971    -89427.9859   4576299.1342   5   8   3.1156   2.0860   4.4117  -1.5097   1.1171   2.5559   0.00    0.0
2026/09/14 21:51:40.000   4426043.9063    -89427.9935   4576298.9759   5   8   3.1156   2.0859   4.4120  -1.5094   1.1173   2.5562   0.00    0.0
2026/09/14 21:51:41.000   4426043.8938    -89427.9844   4576299.0320   5   8   3.1157   2.0858   4.4123  -1.5092   1.1174   2.5566   0.00    0.0
2026/09/14 21:51:42.000   4426043.8251    -89428.0090   4576298.8949   5   8   3.1158   2.0857   4.4126  -1.5090   1.1176   2.5570   0.00    0.0
2026/09/14 21:51:43.000   4426043.9013    -89428.0018   4576298.9300   5   8   3.1159   2.0856   4.4129  -1.5087   1.1177   2.5573   0.00    0.0
2026/09/14 21:51:44.000   4426043.8064    -89427.9502   4576298.8217   5   8   3.1159   2.0855   4.4132  -1.5085   1.1178   2.5577   0.00    0.0
2026/09/14 21:51:45.000   4426044.0299    -89427.9972   4576298.8842   5   8   3.1160   2.0854   4.4135  -1.5082   1.1180   2.5580   0.00    0.0
2026/09/14 21:51:46.000   4426044.0893    -89428.0292   4576298.8745   5   8   3.1161   2.0853   4.4138  -1.5080   1.1181   2.5584   0.00    0.0
2026/09/14 21:51:47.000   4426044.1396    -89428.0618   4576298.9295   5   8   3.1161   2.0852   4.4141  -1.5077   1.1183   2.5587   0.00    0.0
2026/09/14 21:51:48.000   4426044.0670    -89428.0755   4576298.7729   5   8   3.1162   2.0851   4.4144  -1.5075   1.1184   2.5591   0.00    0.0
2026/09/14 21:51:49.000   4426044.0529    -89428.0886   4576298.6834   5   8   3.1163   2.0850   4.4147  -1.5073   1.1185   2.5594   0.00    0.0
2026/09/14 21:51:50.000   4426043.9693    -89428.0953   4576298.5731   5   8   3.1163   2.0848   4.4150  -1.5070   1.1187   2.5598   0.00    0.0
2026/09/14 21:51:51.000   4426043.7620    -89428.0987   4576298.4903   5   8   3.1164   2.0847   4.4153  -1.5068   1.1188   2.5602   0.00    0.0
2026/09/14 21:51:52.000   4426043.8408    -89428.1177   4576298.6690   5   8   3.1165   2.0846   4.4156  -1.5065   1.1189   2.5605   0.00    0.0
2026/09/14 21:51:53.000   4426043.8727    -89428.1755   4576298.7788   5   8   3.1165   2.0845   4.4159  -1.5063   1.1191   2.5609   0.00    0.0
2026/09/14 21:51:54.000   4426043.8588    -89428.1531   4576298.8669   5   8   3.1166   2.0844   4.4162  -1.5060   1.1192   2.5612   0.00    0.0
2026/09/14 21:51:55.000   4426043.7333    -89428.1594   4576298.7567   5   8   3.1167   2.0843   4.4165  -1.5058   1.1193   2.5616   0.00    0.0
2026/09/14 21:51:56.000   4426043.6801    -89428.1246   4576298.7907   5   8   3.1167   2.0842   4.4168  -1.5055   1.1195   2.5619   0.00    0.0
2026/09/14 21:51:57.000   4426043.5941    -89428.0071   4576298.7572   5   8   3.1168   2.0841   4.4171  -1.5053   1.1196   2.5623   0.00    0.0
2026/09/14 21:51:58.000   4426043.7196    -89428.0739   4576298.7534   5   8   3.1169   2.0840   4.4173  -1.5051   1.1198   2.5626   0.00    0.0
2026/09/14 21:51:59.000   4426043.6701    -89428.0170   4576298.7085   5   8   3.1170   2.0839   4.4176  -1.5048   1.1199   2.5630   0.00    0.0
2026/09/14 21:52:00.000   4426043.6371    -89428.0819   4576298.5708   5   8   3.1170   2.0838   4.4179  -1.5046   1.1200   2.5633   0.00    0.0
2026/09/14 21:52:01.000   4426043.5747    -89428.0713   4576298.5539   5   8   3.1171   2.0837   4.4182  -1.5043   1.1202   2.5637   0.00    0.0
2026/09/14 21:52:02.000   4426043.4006    -89428.0521   4576298.4691   5   8   3.1172   2.0836   4.4185  -1.5041   1.1203   2.5640   0.00    0.0
2026/09/14 21:52:03.000   4426043.4502    -89428.0121   4576298.4839   5   8   3.1172   2.0835   4.4188  -1.5038   1.1204   2.5644   0.00    0.0
2026/09/14 21:52:04.000   4426043.5476    -89427.9985   4576298.5802   5   8   3.1173   2.0834   4.4191  -1.5036   1.1206   2.5647   0.00    0.0
2026/09/14 21:52:05.000   4426043.5593    -89427.9672   4576298.7138   5   8   3.1174   2.0833   4.4194  -1.5034   1.1207   2.5651   0.00    0.0
2026/09/14 21:52:06.000   4426043.5829    -89427.9400   4576298.8139   5   8   3.1174   2.0832   4.4197  -1.5031   1.1208   2.5654   0.00    0.0
2026/09/14 21:52:07.000   4426043.6614    -89428.0476   4576298.8056   5   8   3.1175   2.0830   4.4200  -1.5029   1.1210   2.5658   0.00    0.0
2026/09/14 21:52:08.000   4426043.6435    -89428.1014   4576298.6614   5   8   3.1176   2.0829   4.4203  -1.5026   1.1211   2.5661   0.00    0.0
2026/09/14 21:52:09.000   4426043.6487    -89428.1958   4576298.5455   5   8   3.1176   2.0828   4.4205  -1.5024   1.1212   2.5665   0.00    0.0
2026/09/14 21:52:10.000   4426043.6438    -89428.2083   4576298.5769   5   8   3.1177   2.0827   4.4208  -1.5021   1.1214   2.5668   0.00    0.0
2026/09/14 21:52:11.000   4426043.7713    -89428.1483   4576298.6557   5   8   3.1178   2.0826   4.4211  -1.5019   1.1215   2.5672   0.00    0.0
2026/09/14 21:52:12.000   4426043.6700    -89428.1644   4576298.7836   5   8   3.1179   2.0825   4.4214  -1.5017   1.1216   2.5675   0.00    0.0
2026/09/14 21:52:13.000   4426043.5706    -89428.2339   4576298.7461   5   8   3.1179   2.0824   4.4217  -1.5014   1.1218   2.5679   0.00    0.0
2026/09/14 21:52:14.000   4426043.7117    -89428.2397   4576298.8289   5   8   3.1180   2.0823   4.4220  -1.5012   1.1219   2.5682   0.00    0.0
2026/09/14 21:52:15.000   4426043.7060    -89428.2597   4576298.7330   5   8   3.1181   2.0822   4.4223  -1.5009   1.1220   2.5686   0.00    0.0
2026/09/14 21:52:16.000   4426043.9714    -89428.3524   4576298.9409   5   8   3.1181   2.0821   4.4225  -1.5007   1.1222   2.5689   0.00    0.0
2026/09/14 21:52:17.000   4426044.0991    -89428.2580   4576299.0271   5   8   3.1182   2.0820   4.4228  -1.5004   1.1223   2.5693   0.00    0.0
2026/09/14 21:52:18.000   4426044.0315    -89428.2097   4576299.0957   5   8   3.1183   2.0819   4.4231  -1.5002   1.1224   2.5696   0.00    0.0
2026/09/14 21:52:19.000   4426043.9060    -89428.2186   4576299.0556   5   8   3.1183   2.0818   4.4234  -1.4999   1.1226   2.5700   0.00    0.0
2026/09/14 21:52:20.000   4426043.9011    -89428.1006   4576299.0815   5   8   3.1184   2.0817   4.4237  -1.4997   1.1227   2.5703   0.00    0.0
2026/09/14 21:52:21.000   4426043.8619    -89428.1314   4576299.1344   5   8   3.1185   2.0816   4.4240  -1.4995   1.1228   2.5707   0.00    0.0
2026/09/14 21:52:22.000   4426043.8958    -89428.1257   4576299.1361   5   8   3.1185   2.0815   4.4242  -1.4992   1.1230   2.5710   0.00    0.0
2026/09/14 21:52:23.000   4426043.8505    -89428.1405   4576299.0675   5   8   3.1186   2.0814   4.4245  -1.4990   1.1231   2.5714   0.00    0.0
2026/09/14 21:52:24.000   4426043.8958    -89428.2345   4576299.0022   5   8   3.1187   2.0813   4.4248  -1.4987   1.1232   2.5717   0.00    0.0
2026/09/14 21:52:25.000   4426043.9049    -89428.3413   4576298.9315   5   8   3.1188   2.0812   4.4251  -1.4985   1.1234   2.5721   0.00    0.0
2026/09/14 21:52:26.000   4426043.9458    -89428.3620   4576298.9706   5   8   3.1188   2.0810   4.4254  -1.4982   1.1235   2.5724   0.00    0.0
2026/09/14 21:52:27.000   4426044.0025    -89428.4561   4576299.0255   5   8   3.1189   2.0809   4.4257  -1.4980   1.1236   2.5727   0.00    0.0
2026/09/14 21:52:28.000   4426043.9961    -89428.3779   4576299.0657   5   8   3.1190   2.0808   4.4259  -1.4978   1.1238   2.5731   0.00    0.0
2026/09/14 21:52:29.000   4426043.8865    -89428.4085   4576299.0235   5   8   3.1190   2.0807   4.4262  -1.4975   1.1239   2.5734   0.00    0.0
2026/09/14 21:52:30.000   4426043.8552    -89428.4577   4576299.1018   5   8   3.1191   2.0806   4.4265  -1.4973   1.1240   2.5738   0.00    0.0
2026/09/14 21:52:31.000   4426043.6980    -89428.3886   4576298.9773   5   8   3.1192   2.0805   4.4268  -1.4970   1.1242   2.5741   0.00    0.0
2026/09/14 21:52:32.000   4426043.7325    -89428.3972   4576299.0721   5   8   3.1192   2.0804   4.4270  -1.4968   1.1243   2.5745   0.00    0.0
2026/09/14 21:52:33.000   4426043.7420    -89428.4456   4576298.9793   5   8   3.1193   2.0803   4.4273  -1.4965   1.1244   2.5748   0.00    0.0
2026/09/14 21:52:34.000   4426043.7573    -89428.3964   4576298.9799   5   8   3.1194   2.0802   4.4276  -1.4963   1.1245   2.5752   0.00    0.0
2026/09/14 21:52:35.000   4426043.6421    -89428.3585   4576298.9488   5   8   3.1194   2.0801   4.4279  -1.4961   1.1247   2.5755   0.00    0.0
2026/09/14 21:52:36.000   4426043.6968    -89428.4008   4576299.0900   5   8   3.1195   2.0800   4.4282  -1.4958   1.1248   2.5758   0.00    0.0
2026/09/14 21:52:37.000   4426043.6429    -89428.4122   4576299.0772   5   8   3.1196   2.0799   4.4284  -1.4956   1.1249   2.5762   0.00    0.0
2026/09/14 21:52:38.000   4426043.6710    -89428.4020   4576299.1193   5   8   3.1197   2.0798   4.4287  -1.4953   1.1251   2.5765   0.00    0.0
2026/09/14 21:52:39.000   4426043.6987    -89428.4043   4576299.0968   5   8   3.1197   2.0797   4.4290  -1.4951   1.1252   2.5769   0.00    0.0
2026/09/14 21:52:40.000   4426043.7719    -89428.4601   4576299.2778   5   8   3.1198   2.0796   4.4293  -1.4948   1.1253   2.5772   0.00    0.0
2026/09/14 21:52:41.000   4426043.7770    -89428.5110   4576299.3011   5   8   3.1199   2.0795   4.4295  -1.4946   1.1254   2.5776   0.00    0.0
2026/09/14 21:52:42.000   4426043.8709    -89428.5566   4576299.3316   5   8   3.1199   2.0794   4.4298  -1.4943   1.1256   2.5779   0.00    0.0
2026/09/14 21:52:43.000   4426044.0789    -89428.6153   4576299.3895   5   8   3.1200   2.0793   4.4301  -1.4941   1.1257   2.5782   0.00    0.0
2026/09/14 21:52:44.000   4426044.0621    -89428.6215   4576299.3122   5   8   3.1201   2.0792   4.4303  -1.4939   1.1258   2.5786   0.00    0.0
2026/09/14 21:52:45.000   4426044.1995    -89428.6408   4576299.3327   5   8   3.1201   2.0791   4.4306  -1.4936   1.1260   2.5789   0.00    0.0
2026/09/14 21:52:46.000   4426044.1321    -89428.5773   4576299.3317   5   8   3.1202   2.0789   4.4309  -1.4934   1.1261   2.5793   0.00    0.0
2026/09/14 21:52:47.000   4426044.1684    -89428.5109   4576299.4528   5   8   3.1203   2.0788   4.4312  -1.4931   1.1262   2.5796   0.00    0.0
2026/09/14 21:52:48.000   4426044.1858    -89428.5111   4576299.4840   5   8   3.1203   2.0787   4.4314  -1.4929   1.1263   2.5799   0.00    0.0
2026/09/14 21:52:49.000   4426043.9973    -89428.5140   4576299.2726   5   8   3.1204   2.0786   4.4317  -1.4926   1.1265   2.5803   0.00    0.0
2026/09/14 21:52:50.000   4426043.8949    -89428.4973   4576299.0977   5   8   3.1205   2.0785   4.4320  -1.4924   1.1266   2.5806   0.00    0.0
2026/09/14 21:52:51.000   4426043.8273    -89428.4569   4576299.0213   5   8   3.1206   2.0784   4.4322  -1.4922   1.1267   2.5810   0.00    0.0
2026/09/14 21:52:52.000   4426043.7337    -89428.4587   4576299.0221   5   8   3.1206   2.0783   4.4325  -1.4919   1.1268   2.5813   0.00    0.0
2026/09/14 21:52:53.000   4426043.6573    -89428.4950   4576298.8963   5   8   3.1207   2.0782   4.4328  -1.4917   1.1270   2.5816   0.00    0.0
2026/09/14 21:52:54.000   4426043.6611    -89428.5192   4576299.0217   5   8   3.1208   2.0781   4.4330  -1.4914   1.1271   2.5820   0.00    0.0
2026/09/14 21:52:55.000   4426043.6414    -89428.4940   4576299.2080   5   8   3.1208   2.0780   4.4333  -1.4912   1.1272   2.5823   0.00    0.0
2026/09/14 21:52:56.000   4426043.6980    -89428.5166   4576299.3342   5   8   3.1209   2.0779   4.4336  -1.4909   1.1274   2.5827   0.00    0.0
2026/09/14 21:52:57.000   4426043.7704    -89428.4657   4576299.3336   5   8   3.1210   2.0778   4.4338  -1.4907   1.1275   2.5830   0.00    0.0
2026/09/14 21:52:58.000   4426042.9581    -89427.9425   4576298.7883   5   9   2.5968   1.7390   4.2844  -0.5030   1.6032   2.1670   0.00    0.0
2026/09/14 21:52:59.000   4426042.9764    -89427.9359   4576298.7393   5   9   2.5969   1.7390   4.2848  -0.5025   1.6032   2.1675   0.00    0.0
2026/09/14 21:53:00.000   4426043.1170    -89427.9461   4576298.7719   5   9   2.5970   1.7389   4.2851  -0.5020   1.6032   2.1680   0.00    0.0
2026/09/14 21:53:01.000   4426043.2095    -89428.0363   4576298.6868   5   9   2.5971   1.7388   4.2854  -0.5014   1.6032   2.1684   0.00    0.0
2026/09/14 21:53:02.000   4426043.3059    -89428.0898   4576298.6696   5   9   2.5972   1.7388   4.2857  -0.5009   1.6032   2.1689   0.00    0.0
2026/09/14 21:53:03.000   4426043.3023    -89428.1223   4576298.5992   5   9   2.5973   1.7387   4.2860  -0.5003   1.6032   2.1694   0.00    0.0
2026/09/14 21:53:04.000   4426043.2756    -89428.1621   4576298.6727   5   9   2.5974   1.7386   4.2863  -0.4998   1.6032   2.1698   0.00    0.0
2026/09/14 21:53:05.000   4426043.2277    -89428.1525   4576298.6494   5   9   2.5975   1.7386   4.2867  -0.4993   1.6032   2.1703   0.00    0.0
2026/09/14 21:53:06.000   4426043.2200    -89428.1422   4576298.5959   5   9   2.5976   1.7385   4.2870  -0.4987   1.6032   2.1708   0.00    0.0
2026/09/14 21:53:07.000   4426043.2175    -89428.1555   4576298.4942   5   9   2.5977   1.7384   4.2873  -0.4982   1.6032   2.1713   0.00    0.0
2026/09/14 21:53:08.000   4426043.0756    -89428.1225   4576298.3846   5   9   2.5978   1.7384   4.2876  -0.4976   1.6032   2.1717   0.00    0.0
2026/09/14 21:53:09.000   4426043.0410    -89428.1361   4576298.3828   5   9   2.5979   1.7383   4.2879  -0.4971   1.6032   2.1722   0.00    0.0
2026/09/14 21:53:10.000   4426043.0653    -89428.1257   4576298.4080   5   9   2.5980   1.7382   4.2882  -0.4965   1.6032   2.1727   0.00    0.0
2026/09/14 21:53:11.000   4426043.0703    -89428.1204   4576298.3033   5   9   2.5981   1.7382   4.2885  -0.4960   1.6032   2.1731   0.00    0.0
2026/09/14 21:53:12.000   4426043.0602    -89428.1196   4576298.2815   5   9   2.5982   1.7381   4.2888  -0.4954   1.6032   2.1736   0.00    0.0
2026/09/14 21:53:13.000   4426043.0587    -89428.0709   4576298.2069   5   9   2.5983   1.7380   4.2891  -0.4949   1.6032   2.1741   0.00    0.0
2026/09/14 21:53:14.000   4426043.1499    -89428.1117   4576298.1440   5   9   2.5984   1.7380   4.2895  -0.4944   1.6032   2.1745   0.00    0.0
2026/09/14 21:53:15.000   4426043.0783    -89428.1066   4576298.1382   5   9   2.5985   1.7379   4.2898  -0.4938   1.6031   2.1750   0.00    0.0
2026/09/14 21:53:16.000   4426042.8413    -89428.0539   4576297.9674   5   9   2.5986   1.7378   4.2901  -0.4933   1.6031   2.1755   0.00    0.0
2026/09/14 21:53:17.000   4426042.8934    -89428.0218   4576297.9747   5   9   2.5987   1.7378   4.2904  -0.4927   1.6031   2.1759   0.00    0.0
2026/09/14 21:53:18.000   4426042.9554    -89427.9448   4576297.9584   5   9   2.5988   1.7377   4.2907  -0.4922   1.6031   2.1764   0.00    0.0
2026/09/14 21:53:19.000   4426042.9627    -89427.8990   4576297.8597   5   9   2.5989   1.7376   4.2910  -0.4916   1.6031   2.1769   0.00    0.0
2026/09/14 21:53:20.000   4426043.0224    -89427.8954   4576297.8960   5   9   2.5990   1.7376   4.2913  -0.4911   1.6031   2.1774   0.00    0.0
2026/09/14 21:53:21.000   4426042.9915    -89427.9623   4576297.9186   5   9   2.5991   1.7375   4.2916  -0.4905   1.6031   2.1778   0.00    0.0
2026/09/14 21:53:22.000   4426043.0971    -89428.0365   4576297.9649   5   9   2.5992   1.7374   4.2919  -0.4900   1.6031   2.1783   0.00    0.0
2026/09/14 21:53:23.000   4426043.1470    -89428.0105   4576297.9486   5   9   2.5993   1.7374   4.2922  -0.4894   1.6031   2.1788   0.00    0.0
2026/09/14 21:53:24.000   4426043.2597    -89428.0294   4576298.0456   5   9   2.5994   1.7373   4.2925  -0.4889   1.6031   2.1792   0.00    0.0
2026/09/14 21:53:25.000   4426043.3082    -89428.0135   4576298.1043   5   9   2.5995   1.7372   4.2928  -0.4883   1.6031   2.1797   0.00    0.0
2026/09/14 21:53:26.000   4426043.2179    -89428.0029   4576298.0645   5   9   2.5996   1.7372   4.2931  -0.4878   1.6031   2.1802   0.00    0.0
2026/09/14 21:53:27.000   4426043.2942    -89428.0740   4576298.0525   5   9   2.5997   1.7371   4.2934  -0.4872   1.6031   2.1806   0.00    0.0
2026/09/14 21:53:28.000   4426043.4208    -89428.0199   4576298.2706   5   9   2.5998   1.7370   4.2937  -0.4867   1.6031   2.1811   0.00    0.0
2026/09/14 21:53:29.000   4426043.3326    -89428.0672   4576298.2345   5   9   2.5999   1.7370   4.2940  -0.4861   1.6031   2.1815   0.00    0.0
2026/09/14 21:53:30.000   4426043.2017    -89428.1165   4576298.1720   5   9   2.6000   1.7369   4.2943  -0.4856   1.6031   2.1820   0.00    0.0
2026/09/14 21:53:31.000   4426043.1123    -89428.1293   4576298.1812   5   9   2.6002   1.7368   4.2946  -0.4850   1.6031   2.1825   0.00    0.0
2026/09/14 21:53:32.000   4426043.0689    -89428.1565   4576298.1192   5   9   2.6003   1.7368   4.2950  -0.4845   1.6031   2.1829   0.00    0.0
2026/09/14 21:53:33.000   4426042.9727    -89428.2044   4576297.8940   5   9   2.6004   1.7367   4.2953  -0.4839   1.6031   2.1834   0.00    0.0
2026/09/14 21:53:34.000   4426042.9353    -89428.1822   4576297.9767   5   9   2.6005   1.7366   4.2956  -0.4834   1.6031   2.1839   0.00    0.0
2026/09/14 21:53:35.000   4426042.9093    -89428.2272   4576297.9155   5   9   2.6006   1.7366   4.2959  -0.4828   1.6031   2.1843   0.00    0.0
2026/09/14 21:53:36.000   4426042.8900    -89428.1490   4576297.9968   5   9   2.6007   1.7365   4.2962  -0.4822   1.6031   2.1848   0.00    0.0
2026/09/14 21:53:37.000   4426042.8288    -89428.1862   4576297.8861   5   9   2.6008   1.7364   4.2965  -0.4817   1.6031   2.1853   0.00    0.0
2026/09/14 21:53:38.000   4426042.8063    -89428.1218   4576298.0309   5   9   2.6009   1.7364   4.2968  -0.4811   1.6030   2.1857   0.00    0.0
2026/09/14 21:53:39.000   4426042.6925    -89428.1374   4576297.9227   5   9   2.6010   1.7363   4.2971  -0.4806   1.6030   2.1862   0.00    0.0
2026/09/14 21:53:40.000   4426042.5697    -89428.0534   4576297.8422   5   9   2.6011   1.7362   4.2973  -0.4800   1.6030   2.1867   0.00    0.0
2026/09/14 21:53:41.000   4426042.6524    -89428.0008   4576297.9275   5   9   2.6012   1.7362   4.2976  -0.4795   1.6030   2.1871   0.00    0.0
2026/09/14 21:53:42.000   4426042.7246    -89428.0313   4576298.0687   5   9   2.6013   1.7361   4.2979  -0.4789   1.6030   2.1876   0.00    0.0
2026/09/14 21:53:43.000   4426042.8980    -89428.1184   4576298.3292   5   9   2.6014   1.7360   4.2982  -0.4783   1.6030   2.1880   0.00    0.0
2026/09/14 21:53:44.000   4426042.8415    -89428.1482   4576298.2601   5   9   2.6015   1.7360   4.2985  -0.4778   1.6030   2.1885   0.00    0.0
2026/09/14 21:53:45.000   4426042.8726    -89428.2182   4576298.2671   5   9   2.6016   1.7359   4.2988  -0.4772   1.6030   2.1890   0.00    0.0
2026/09/14 21:53:46.000   4426042.7441    -89428.1002   4576298.2275   5   9   2.6017   1.7358   4.2991  -0.4767   1.6030   2.1894   0.00    0.0
2026/09/14 21:53:47.000   4426042.5392    -89428.0975   4576298.1228   5   9   2.6018   1.7358   4.2994  -0.4761   1.6030   2.1899   0.00    0.0
2026/09/14 21:53:48.000   4426042.4794    -89428.1279   4576297.9509   5   9   2.6019   1.7357   4.2997  -0.4756   1.6030   2.1904   0.00    0.0
2026/09/14 21:53:49.000   4426042.6270    -89428.1569   4576297.9833   5   9   2.6020   1.7356   4.3000  -0.4750   1.6030   2.1908   0.00    0.0
2026/09/14 21:53:50.000   4426042.6287    -89428.1409   4576297.7717   5   9   2.6021   1.7356   4.3003  -0.4744   1.6029   2.1913   0.00    0.0
2026/09/14 21:53:51.000   4426042.7499    -89428.1404   4576297.7245   5   9   2.6022   1.7355   4.3006  -0.4739   1.6029   2.1917   0.00    0.0
2026/09/14 21:53:52.000   4426042.8946    -89428.1586   4576297.8229   5   9   2.6023   1.7354   4.3009  -0.4733   1.6029   2.1922   0.00    0.0
2026/09/14 21:53:53.000   4426042.9716    -89428.1797   4576297.8916   5   9   2.6024   1.7354   4.3012  -0.4727   1.6029   2.1927   0.00    0.0
2026/09/14 21:53:54.000   4426043.1415    -89428.2306   4576298.0794   5   9   2.6026   1.7353   4.3015  -0.4722   1.6029   2.1931   0.00    0.0
2026/09/14 21:53:55.000   4426043.0042    -89428.1885   4576298.1429   5   9   2.6027   1.7352   4.3018  -0.4716   1.6029   2.1936   0.00    0.0
2026/09/14 21:53:56.000   4426042.7750    -89428.2219   4576298.0882   5   9   2.6028   1.7352   4.3021  -0.4711   1.6029   2.1940   0.00    0.0
2026/09/14 21:53:57.000   4426042.7879    -89428.1887   4576298.0895   5   9   2.6029   1.7351   4.3023  -0.4705   1.6029   2.1945   0.00    0.0
2026/09/14 21:53:58.000   4426042.8429    -89428.2275   4576298.1297   5   9   2.6030   1.7350   4.3026  -0.4699   1.6029   2.1950   0.00    0.0
2026/09/14 21:53:59.000   4426042.9841    -89428.1896   4576298.1876   5   9   2.6031   1.7350   4.3029  -0.4694   1.6029   2.1954   0.00    0.0
2026/09/14 21:54:00.000   4426043.0064    -89428.2335   4576298.2473   5   9   2.6032   1.7349   4.3032  -0.4688   1.6028   2.1959   0.00    0.0
2026/09/14 21:54:01.000   4426042.8224    -89428.2350   4576298.0216   5   9   2.6033   1.7348   4.3035  -0.4682   1.6028   2.1963   0.00    0.0
2026/09/14 21:54:02.000   4426042.7908    -89428.2529   4576297.9047   5   9   2.6034   1.7348   4.3038  -0.4677   1.6028   2.1968   0.00    0.0
2026/09/14 21:54:03.000   4426042.7215    -89428.1973   4576297.9321   5   9   2.6035   1.7347   4.3041  -0.4671   1.6028   2.1972   0.00    0.0
2026/09/14 21:54:04.000   4426042.9154    -89428.1963   4576298.0319   5   9   2.6036   1.7346   4.3044  -0.4665   1.6028   2.1977   0.00    0.0
2026/09/14 21:54:05.000   4426042.8486    -89428.1912   4576297.9550   5   9   2.6037   1.7346   4.3047  -0.4660   1.6028   2.1982   0.00    0.0
2026/09/14 21:54:06.000   4426042.8346    -89428.2093   4576298.0869   5   9   2.6038   1.7345   4.3049  -0.4654   1.6028   2.1986   0.00    0.0
2026/09/14 21:54:07.000   4426042.9061    -89428.2572   4576298.1577   5   9   2.6039   1.7344   4.3052  -0.4648   1.6028   2.1991   0.00    0.0
2026/09/14 21:54:08.000   4426042.9401    -89428.2109   4576298.2325   5   9   2.6040   1.7343   4.3055  -0.4643   1.6027   2.1995   0.00    0.0
2026/09/14 21:54:09.000   4426042.8652    -89428.1615   4576298.2801   5   9   2.6041   1.7343   4.3058  -0.4637   1.6027   2.2000   0.00    0.0
2026/09/14 21:54:10.000   4426042.9016    -89428.1572   4576298.2529   5   9   2.6042   1.7342   4.3061  -0.4631   1.6027   2.2004   0.00    0.0
2026/09/14 21:54:11.000   4426042.8814    -89428.1614   4576298.1087   5   9   2.6043   1.7341   4.3064  -0.4625   1.6027   2.2009   0.00    0.0
