% program   : RTKLIB ver.2.4.2
% inp file  : receiver.obs
% inp file  : broadcast.nav
% obs start : 2026/09/14 21:59:14.0 GPST (week2436 165554.0s)
% obs end   : 2026/09/14 22:02:13.0 GPST (week2436 165733.0s)
% pos mode  : single
% elev mask : 10.0 deg
% ionos opt : broadcast
% tropo opt : saastamoinen
% ephemeris : broadcast
%
% (x/y/z-ecef=WGS84,Q=1:fix,2:float,3:sbas,4:dgps,5:single,6:ppp,ns=# of satellites)
%  GPST                      x-ecef(m)      y-ecef(m)      z-ecef(m)   Q  ns   sdx(m)   sdy(m)   sdz(m)  sdxy(m)  sdyz(m)  sdzx(m) age(s)  ratio
2026/09/14 21:59:14.000   4426042.7997    -89427.8727   4576297.9335   5   9   2.6384   1.7143   4.3692  -0.2544   1.5884   2.3263   0.00    0.0
2026/09/14 21:59:15.000   4426042.9096    -89427.8872   4576298.0061   5   9   2.6385   1.7142   4.3693  -0.2535   1.5883   2.3266   0.00    0.0
2026/09/14 21:59:16.000   4426042.8387    -89427.8551   4576297.8976   5   9   2.6387   1.7142   4.3694  -0.2526   1.5883   2.3270   0.00    0.0
2026/09/14 21:59:17.000   4426042.8522    -89427.8910   4576297.8559   5   9   2.6388   1.7141   4.3695  -0.2517   1.5882   2.3274   0.00    0.0
2026/09/14 21:59:18.000   4426042.9296    -89427.8976   4576297.9606   5   9   2.6389   1.7140   4.3697  -0.2508   1.5881   2.3277   0.00    0.0
2026/09/14 21:59:19.000   4426042.8654    -89427.8753   4576297.9232   5   9   2.6390   1.7140   4.3698  -0.2499   1.5880   2.3281   0.00    0.0
2026/09/14 21:59:20.000   4426042.9391    -89427.9158   4576297.8635   5   9   2.6391   1.7139   4.3699  -0.2490   1.5879   2.3284   0.00    0.0
2026/09/14 21:59:21.000   4426042.9019    -89427.9599   4576297.9167   5   9   2.6392   1.7138   4.3700  -0.2481   1.5878   2.3288   0.00    0.0
2026/09/14 21:59:22.000   4426043.0287    -89427.9068   4576298.0515   5   9   2.6394   1.7138   4.3702  -0.2472   1.5878   2.3292   0.00    0.0
2026/09/14 21:59:23.000   4426043.1365    -89427.8486   4576298.0237   5   9   2.6395   1.7137   4.3703  -0.2463   1.5877   2.3295   0.00    0.0
2026/09/14 21:59:24.000   4426043.2498    -89427.7986   4576298.2200   5   9   2.6396   1.7137   4.3704  -0.2454   1.5876   2.3299   0.00    0.0
2026/09/14 21:59:25.000   4426043.2680    -89427.7738   4576298.3082   5   9   2.6397   1.7136   4.3705  -0.2445   1.5875   2.3303   0.00    0.0
2026/09/14 21:59:26.000   4426043.2052    -89427.8088   4576298.2531   5   9   2.6398   1.7135   4.3706  -0.2435   1.5874   2.3306   0.00    0.0
2026/09/14 21:59:27.000   4426043.2116    -89427.7759   4576298.3070   5   9   2.6399   1.7135   4.3708  -0.2426   1.5873   2.3310   0.00    0.0
2026/09/14 21:59:28.000   4426043.2595    -89427.7032   4576298.4204   5   9   2.6401   1.7134   4.3709  -0.2417   1.5872   2.3314   0.00    0.0
2026/09/14 21:59:29.000   4426043.1161    -89427.7625   4576298.2527   5   9   2.6402   1.7133   4.3710  -0.2407   1.5872   2.3317   0.00    0.0
2026/09/14 21:59:30.000   4426043.1064    -89427.8719   4576298.2496   5   9   2.6403   1.7133   4.3711  -0.2398   1.5871   2.3321   0.00    0.0
2026/09/14 21:59:31.000   4426042.9998    -89427.8595   4576298.1337   5   9   2.6404   1.7132   4.3712  -0.2389   1.5870   2.3324   0.00    0.0
2026/09/14 21:59:32.000   4426043.0427    -89427.9223   4576298.2073   5   9   2.6405   1.7131   4.3713  -0.2379   1.5869   2.3328   0.00    0.0
2026/09/14 21:59:33.000   4426042.9926    -89427.8399   4576298.0678   5   9   2.6406   1.7131   4.3715  -0.2370   1.5868   2.3332   0.00    0.0
2026/09/14 21:59:34.000   4426043.0713    -89427.8766   4576298.0926   5   9   2.6408   1.7130   4.3716  -0.2360   1.5867   2.3335   0.00    0.0
2026/09/14 21:59:35.000   4426042.9922    -89427.9118   4576298.0009   5   9   2.6409   1.7129   4.3717  -0.2351   1.5866   2.3339   0.00    0.0
2026/09/14 21:59:36.000   4426043.1127    -89427.9368   4576298.1146   5   9   2.6410   1.7129   4.3718  -0.2341   1.5866   2.3342   0.00    0.0
2026/09/14 21:59:37.000   4426043.1877    -89427.9373   4576298.0917   5   9   2.6411   1.7128   4.3719  -0.2332   1.5865   2.3346   0.00    0.0
2026/09/14 21:59:38.000   4426043.2535    -89427.8625   4576298.1334   5   9   2.6412   1.7128   4.3720  -0.2322   1.5864   2.3350   0.00    0.0
2026/09/14 21:59:39.000   4426043.3692    -89427.8146   4576298.2068   5   9   2.6413   1.7127   4.3721  -0.2312   1.5863   2.3353   0.00    0.0
2026/09/14 21:59:40.000   4426043.3413    -89427.8274   4576298.0986   5   9   2.6415   1.7126   4.3722  -0.2303   1.5862   2.3357   0.00    0.0
2026/09/14 21:59:41.000   4426043.4139    -89427.7690   4576298.2032   5   9   2.6416   1.7126   4.3724  -0.2293   1.5861   2.3360   0.00    0.0
2026/09/14 21:59:42.000   4426043.4737    -89427.8261   4576298.1660   5   9   2.6417   1.7125   4.3725  -0.2283   1.5860   2.3364   0.00    0.0
2026/09/14 21:59:43.000   4426043.3629    -89427.8119   4576298.0492   5   9   2.6418   1.7124   4.3726  -0.2273   1.5859   2.3367   0.00    0.0
2026/09/14 21:59:44.000   4426043.2699    -89427.8292   4576297.9277   5   9   2.6419   1.7124   4.3727  -0.2264   1.5859   2.3371   0.00    0.0
2026/09/14 21:59:45.000   4426042.9715    -89427.8734   4576297.7739   5   9   2.6420   1.7123   4.3728  -0.2254   1.5858   2.3375   0.00    0.0
2026/09/14 21:59:46.000   4426042.9446    -89427.8681   4576297.7004   5   9   2.6422   1.7122   4.3729  -0.2244   1.5857   2.3378   0.00    0.0
2026/09/14 21:59:47.000   4426042.8557    -89427.8965   4576297.6208   5   9   2.6423   1.7122   4.3730  -0.2234   1.5856   2.3382   0.00    0.0
2026/09/14 21:59:48.000   4426042.8288    -89427.9215   4576297.6159   5   9   2.6424   1.7121   4.3731  -0.2224   1.5855   2.3385   0.00    0.0
2026/09/14 21:59:49.000   4426042.8544    -89427.9190   4576297.6399   5   9   2.6425   1.7120   4.3732  -0.2214   1.5854   2.3389   0.00    0.0
2026/09/14 21:59:50.000   4426042.8054    -89427.9069   4576297.7193   5   9   2.6426   1.7120   4.3733  -0.2204   1.5853   2.3392   0.00    0.0
2026/09/14 21:59:51.000   4426042.8396    -89427.9188   4576297.7353   5   9   2.6427   1.7119   4.3734  -0.2194   1.5852   2.3396   0.00    0.0
2026/09/14 21:59:52.000   4426042.9213    -89427.9135   4576297.8464   5   9   2.6429   1.7119   4.3735  -0.2184   1.5851   2.3399   0.00    0.0
2026/09/14 21:59:53.000   4426042.9702    -89427.8478   4576297.9726   5   9   2.6430   1.7118   4.3736  -0.2173   1.5851   2.3403   0.00    0.0
2026/09/14 21:59:54.000   4426042.9540    -89427.8228   4576297.9715   5   9   2.6431   1.7117   4.3737  -0.2163   1.5850   2.3407   0.00    0.0
2026/09/14 21:59:55.000   4426042.9802    -89427.8408   4576297.9359   5   9   2.6432   1.7117   4.3738  -0.2153   1.5849   2.3410   0.00    0.0
2026/09/14 21:59:56.000   4426043.1215    -89427.8515   4576297.8761   5   9   2.6433   1.7116   4.3739  -0.2143   1.5848   2.3414   0.00    0.0
2026/09/14 21:59:57.000   4426043.1608    -89427.8182   4576297.9493   5   9   2.6434   1.7115   4.3740  -0.2132   1.5847   2.3417   0.00    0.0
2026/09/14 21:59:58.000   4426043.2174    -89427.8091   4576298.0318   5   9   2.6435   1.7115   4.3741  -0.2122   1.5846   2.3421   0.00    0.0
2026/09/14 21:59:59.000   4426043.1726    -89427.7858   4576298.0539   5   9   2.6437   1.7114   4.3742  -0.2111   1.5845   2.3424   0.00    0.0
2026/09/14 22:00:00.000   4426043.1058    -89427.7429   4576297.9275   5   9   2.6438   1.7113   4.3743  -0.2101   1.5844   2.3428   0.00    0.0
2026/09/14 22:00:01.000   4426043.2441    -89427.6722   4576298.1174   5   9   2.6439   1.7113   4.3744  -0.2090   1.5843   2.3431   0.00    0.0
2026/09/14 22:00:02.000   4426043.1204    -89427.6194   4576297.9896   5   9   2.6440   1.7112   4.3745  -0.2080   1.5842   2.3435   0.00    0.0
2026/09/14 22:00:03.000   4426043.1179    -89427.5782   4576297.9550   5   9   2.6441   1.7112   4.3746  -0.2069   1.5841   2.3438   0.00    0.0
2026/09/14 22:00:04.000   4426043.0957    -89427.5886   4576297.9589   5   9   2.6442   1.7111   4.3747  -0.2059   1.5840   2.3442   0.00    0.0
2026/09/14 22:00:05.000   4426043.1880    -89427.6826   4576298.0356   5   9   2.6444   1.7110   4.3748  -0.2048   1.5839   2.3445   0.00    0.0
2026/09/14 22:00:06.000   4426043.3244    -89427.6535   4576298.2038   5   9   2.6445   1.7110   4.3749  -0.2037   1.5839   2.3449   0.00    0.0
2026/09/14 22:00:07.000   4426043.3352    -89427.6337   4576298.2940   5   9   2.6446   1.7109   4.3750  -0.2026   1.5838   2.3452   0.00    0.0
2026/09/14 22:00:08.000   4426043.3113    -89427.6647   4576298.2740   5   9   2.6447   1.7108   4.3751  -0.2015   1.5837   2.3456   0.00    0.0
2026/09/14 22:00:09.000   4426043.3829    -89427.6817   4576298.2953   5   9   2.6448   1.7108   4.3752  -0.2004   1.5836   2.3459   0.00    0.0
2026/09/14 22:00:10.000   4426043.3482    -89427.7338   4576298.2158   5   9   2.6449   1.7107   4.3753  -0.1993   1.5835   2.3463   0.00    0.0
2026/09/14 22:00:11.000   4426043.1950    -89427.7743   4576298.1341   5   9   2.6451   1.7106   4.3754  -0.1982   1.5834   2.3466   0.00    0.0
2026/09/14 22:00:12.000   4426043.0889    -89427.8433   4576298.1437   5   9   2.6452   1.7106   4.3755  -0.1971   1.5833   2.3470   0.00    0.0
2026/09/14 22:00:13.000   4426042.9987    -89427.9013   4576298.1453   5   9   2.6453   1.7105   4.3756  -0.1960   1.5832   2.3473   0.00    0.0
2026/09/14 22:00:14.000   4426042.9686    -89427.8758   4576298.0511   5   9   2.6454   1.7105   4.3757  -0.1949   1.5831   2.3476   0.00    0.0
2026/09/14 22:00:15.000   4426043.0653    -89427.9678   4576297.9792   5   9   2.6455   1.7104   4.3758  -0.1938   1.5830   2.3480   0.00    0.0
2026/09/14 22:00:16.000   4426043.2234    -89427.9685   4576298.0221   5   9   2.6456   1.7103   4.3759  -0.1926   1.5829   2.3483   0.00    0.0
2026/09/14 22:00:17.000   4426043.1893    -89427.8900   4576298.0988   5   9   2.6458   1.7103   4.3759  -0.1915   1.5828   2.3487   0.00    0.0
2026/09/14 22:00:18.000   4426043.1712    -89427.8947   4576298.2219   5   9   2.6459   1.7102   4.3760  -0.1904   1.5827   2.3490   0.00    0.0
2026/09/14 22:00:19.000   4426043.0437    -89427.8947   4576298.2299   5   9   2.6460   1.7101   4.3761  -0.1892   1.5826   2.3494   0.00    0.0
2026/09/14 22:00:20.000   4426042.9737    -89427.9361   4576298.2442   5   9   2.6461   1.7101   4.3762  -0.1881   1.5825   2.3497   0.00    0.0
2026/09/14 22:00:21.000   4426043.0146    -89427.8540   4576298.3055   5   9   2.6462   1.7100   4.3763  -0.1869   1.5824   2.3501   0.00    0.0
2026/09/14 22:00:22.000   4426043.0552    -89427.8480   4576298.2016   5   9   2.6463   1.7099   4.3764  -0.1857   1.5823   2.3504   0.00    0.0
2026/09/14 22:00:23.000   4426043.1090    -89427.8505   4576298.1861   5   9   2.6465   1.7099   4.3765  -0.1846   1.5822   2.3507   0.00    0.0
2026/09/14 22:00:24.000   4426043.0844    -89427.7927   4576298.2214   5   9   2.6466   1.7098   4.3766  -0.1834   1.5821   2.3511   0.00    0.0
2026/09/14 22:00:25.000   4426043.0220    -89427.8096   4576298.2186   5   9   2.6467   1.7098   4.3766  -0.1822   1.5820   2.3514   0.00    0.0
2026/09/14 22:00:26.000   4426042.9207    -89427.7463   4576298.2046   5   9   2.6468   1.7097   4.3767  -0.1810   1.5819   2.3518   0.00    0.0
2026/09/14 22:00:27.000   4426042.9354    -89427.7685   4576298.2033   5   9   2.6469   1.7096   4.3768  -0.1798   1.5818   2.3521   0.00    0.0
2026/09/14 22:00:28.000   4426043.0506    -89427.8425   4576298.2144   5   9   2.6470   1.7096   4.3769  -0.1786   1.5817   2.3525   0.00    0.0
2026/09/14 22:00:29.000   4426043.0623    -89427.9024   4576298.1694   5   9   2.6472   1.7095   4.3770  -0.1774   1.5816   2.3528   0.00    0.0
2026/09/14 22:00:30.000   4426042.9739    -89427.8884   4576298.1090   5   9   2.6473   1.7094   4.3771  -0.1761   1.5815   2.3531   0.00    0.0
2026/09/14 22:00:31.000   4426042.9543    -89427.9218   4576298.1101   5   9   2.6474   1.7094   4.3771  -0.1749   1.5814   2.3535   0.00    0.0
2026/09/14 22:00:32.000   4426043.0357    -89427.9741   4576298.1024   5   9   2.6475   1.7093   4.3772  -0.1737   1.5813   2.3538   0.00    0.0
2026/09/14 22:00:33.000   4426043.0578    -89427.9455   4576298.0631   5   9   2.6476   1.7092   4.3773  -0.1724   1.5812   2.3542   0.00    0.0
2026/09/14 22:00:34.000   4426042.9924    -89427.9001   4576298.0653   5   9   2.6477   1.7092   4.3774  -0.1711   1.5811   2.3545   0.00    0.0
2026/09/14 22:00:35.000   4426043.0818    -89427.8101   4576298.1032   5   9   2.6479   1.7091   4.3775  -0.1699   1.5810   2.3548   0.00    0.0
2026/09/14 22:00:36.000   4426042.9969    -89427.8161   4576297.9150   5   9   2.6480   1.7091   4.3775  -0.1686   1.5809   2.3552   0.00    0.0
2026/09/14 22:00:37.000   4426042.9980    -89427.7332   4576298.0349   5   9   2.6481   1.7090   4.3776  -0.1673   1.5808   2.3555   0.00    0.0
2026/09/14 22:00:38.000   4426043.0085    -89427.7950   4576298.1631   5   9   2.6482   1.7089   4.3777  -0.1660   1.5807   2.3559   0.00    0.0
2026/09/14 22:00:39.000   4426042.9253    -89427.8269   4576298.1077   5   9   2.6483   1.7089   4.3778  -0.1647   1.5806   2.3562   0.00    0.0
2026/09/14 22:00:40.000   4426042.9408    -89427.8469   4576298.1343   5   9   2.6484   1.7088   4.3778  -0.1634   1.5805   2.3565   0.00    0.0
2026/09/14 22:00:41.000   4426042.8035    -89427.9013   4576297.9430   5   9   2.6485   1.7087   4.3779  -0.1621   1.5804   2.3569   0.00    0.0
2026/09/14 22:00:42.000   4426042.8312    -89427.9242   4576297.9591   5   9   2.6487   1.7087   4.3780  -0.1608   1.5803   2.3572   0.00    0.0
2026/09/14 22:00:43.000   4426042.9555    -89427.9701   4576298.0248   5   9   2.6488   1.7086   4.3781  -0.1594   1.5802   2.3575   0.00    0.0
2026/09/14 22:00:44.000   4426042.9824    -89427.9994   4576298.0558   5   9   2.6489   1.7085   4.3781  -0.1581   1.5801   2.3579   0.00    0.0
2026/09/14 22:00:45.000   4426043.0417    -89428.0021   4576298.1086   5   9   2.6490   1.7085   4.3782  -0.1567   1.5800   2.3582   0.00    0.0
2026/09/14 22:00:46.000   4426043.0447    -89427.9999   4576298.1338   5   9   2.6491   1.7084   4.3783  -0.1553   1.5799   2.3585   0.00    0.0
2026/09/14 22:00:47.000   4426042.9173    -89427.9713   4576298.1147   5   9   2.6492   1.7084   4.3784  -0.1539   1.5798   2.3589   0.00    0.0
2026/09/14 22:00:48.000   4426042.9708    -89427.9295   4576298.1859   5   9   2.6494   1.7083   4.3784  -0.1526   1.5797   2.3592   0.00    0.0
2026/09/14 22:00:49.000   4426043.0114    -89427.9371   4576298.2570   5   9   2.6495   1.7082   4.3785  -0.1511   1.5796   2.3595   0.00    0.0
2026/09/14 22:00:50.000   4426042.9545    -89427.8943   4576298.2338   5   9   2.6496   1.7082   4.3786  -0.1497   1.5795   2.3599   0.00    0.0
2026/09/14 22:00:51.000   4426042.9005    -89427.8534   4576298.1893   5   9   2.6497   1.7081   4.3786  -0.1483   1.5794   2.3602   0.00    0.0
2026/09/14 22:00:52.000   4426042.9299    -89427.8320   4576298.0839   5   9   2.6498   1.7080   4.3787  -0.1468   1.5793   2.3605   0.00    0.0
2026/09/14 22:00:53.000   4426042.7982    -89427.7609   4576298.0838   5   9   2.6499   1.7080   4.3788  -0.1454   1.5792   2.3609   0.00    0.0
2026/09/14 22:00:54.000   4426042.8212    -89427.7799   4576298.1130   5   9   2.6501   1.7079   4.3788  -0.1439   1.5791   2.3612   0.00    0.0
2026/09/14 22:00:55.000   4426042.8608    -89427.8301   4576298.2625   5   9   2.6502   1.7078   4.3789  -0.1424   1.5790   2.3615   0.00    0.0
2026/09/14 22:00:56.000   4426042.9156    -89427.8224   4576298.2741   5   9   2.6503   1.7078   4.3790  -0.1409   1.5789   2.3619   0.00    0.0
2026/09/14 22:00:57.000   4426042.9187    -89427.8651   4576298.2217   5   9   2.6504   1.7077   4.3790  -0.1394   1.5788   2.3622   0.00    0.0
2026/09/14 22:00:58.000   4426043.0077    -89427.9141   4576298.1861   5   9   2.6505   1.7077   4.3791  -0.1379   1.5787   2.3625   0.00    0.0
2026/09/14 22:00:59.000   4426043.1240    -89427.9389   4576298.1989   5   9   2.6506   1.7076   4.3792  -0.1363   1.5785   2.3629   0.00    0.0
2026/09/14 22:01:00.000   4426043.2224    -89427.9527   4576298.2690   5   9   2.6508   1.7075   4.3792  -0.1347   1.5784   2.3632   0.00    0.0
2026/09/14 22:01:01.000   4426043.1192    -89427.9833   4576298.1445   5   9   2.6509   1.7075   4.3793  -0.1332   1.5783   2.3635   0.00    0.0
2026/09/14 22:01:02.000   4426043.1438    -89427.9316   4576298.0505   5   9   2.6510   1.7074   4.3794  -0.1316   1.5782   2.3638   0.00    0.0
2026/09/14 22:01:03.000   4426043.0276    -89427.9012   4576297.8199   5   9   2.6511   1.7073   4.3794  -0.1299   1.5781   2.3642   0.00    0.0
2026/09/14 22:01:04.000   4426042.9567    -89427.8081   4576297.7737   5   9   2.6512   1.7073   4.3795  -0.1283   1.5780   2.3645   0.00    0.0
2026/09/14 22:01:05.000   4426042.8144    -89427.7716   4576297.7632   5   9   2.6513   1.7072   4.3796  -0.1266   1.5779   2.3648   0.00    0.0
2026/09/14 22:01:06.000   4426042.7709    -89427.8141   4576297.7826   5   9   2.6514   1.7071   4.3796  -0.1250   1.5778   2.3652   0.00    0.0
2026/09/14 22:01:07.000   4426042.7766    -89427.9011   4576297.7785   5   9   2.6516   1.7071   4.3797  -0.1232   1.5777   2.3655   0.00    0.0
2026/09/14 22:01:08.000   4426042.8487    -89427.9303   4576297.8422   5   9   2.6517   1.7070   4.3797  -0.1215   1.5776   2.3658   0.00    0.0
2026/09/14 22:01:09.000   4426042.9269    -89427.9219   4576297.8912   5   9   2.6518   1.7070   4.3798  -0.1198   1.5775   2.3661   0.00    0.0
2026/09/14 22:01:10.000   4426042.9440    -89427.9407   4576297.8945   5   9   2.6519   1.7069   4.3799  -0.1180   1.5774   2.3665   0.00    0.0
2026/09/14 22:01:11.000   4426042.8553    -89427.9995   4576297.7829   5   9   2.6520   1.7068   4.3799  -0.1162   1.5773   2.3668   0.00    0.0
2026/09/14 22:01:12.000   4426042.7315    -89428.0332   4576297.7585   5   9   2.6521   1.7068   4.3800  -0.1144   1.5771   2.3671   0.00    0.0
2026/09/14 22:01:13.000   4426042.7401    -89428.0622   4576297.8359   5   9   2.6523   1.7067   4.3800  -0.1125   1.5770   2.3674   0.00    0.0
2026/09/14 22:01:14.000   4426042.7969    -89427.9972   4576297.9186   5   9   2.6524   1.7066   4.3801  -0.1106   1.5769   2.3678   0.00    0.0
2026/09/14 22:01:15.000   4426042.7390    -89428.0533   4576297.9122   5   9   2.6525   1.7066   4.3801  -0.1087   1.5768   2.3681   0.00    0.0
2026/09/14 22:01:16.000   4426042.7006    -89428.0894   4576297.8736   5   9   2.6526   1.7065   4.3802  -0.1068   1.5767   2.3684   0.00    0.0
2026/09/14 22:01:17.000   4426042.7305    -89428.0938   4576297.7715   5   9   2.6527   1.7065   4.3802  -0.1048   1.5766   2.3687   0.00    0.0
2026/09/14 22:01:18.000   4426042.8191    -89428.0561   4576297.8179   5   9   2.6528   1.7064   4.3803  -0.1028   1.5765   2.3691   0.00    0.0
2026/09/14 22:01:19.000   4426042.8481    -89428.0627   4576297.7424   5   9   2.6530   1.7063   4.3804  -0.1007   1.5764   2.3694   0.00    0.0
2026/09/14 22:01:20.000   4426043.0025    -89428.0657   4576297.8501   5   9   2.6531   1.7063   4.3804  -0.0986   1.5763   2.3697   0.00    0.0
2026/09/14 22:01:21.000   4426043.0245    -89428.0155   4576297.9026   5   9   2.6532   1.7062   4.3805  -0.0964   1.5762   2.3700   0.00    0.0
2026/09/14 22:01:22.000   4426043.0078    -89428.0482   4576297.8562   5   9   2.6533   1.7061   4.3805  -0.0942   1.5760   2.3703   0.00    0.0
2026/09/14 22:01:23.000   4426042.9814    -89428.0377   4576297.7791   5   9   2.6534   1.7061   4.3806  -0.0920   1.5759   2.3707   0.00    0.0
2026/09/14 22:01:24.000   4426042.9779    -89428.0327   4576297.8724   5   9   2.6535   1.7060   4.3806  -0.0897   1.5758   2.3710   0.00    0.0
2026/09/14 22:01:25.000   4426042.9273    -89428.0904   4576297.8018   5   9   2.6536   1.7059   4.3807  -0.0873   1.5757   2.3713   0.00    0.0
2026/09/14 22:01:26.000   4426042.8919    -89428.0726   4576297.8370   5   9   2.6538   1.7059   4.3807  -0.0849   1.5756   2.3716   0.00    0.0
2026/09/14 22:01:27.000   4426042.8560    -89428.1080   4576297.8098   5   9   2.6539   1.7058   4.3808  -0.0824   1.5755   2.3720   0.00    0.0
2026/09/14 22:01:28.000   4426042.8531    -89428.1426   4576297.8640   5   9   2.6540   1.7058   4.3808  -0.0799   1.5754   2.3723   0.00    0.0
2026/09/14 22:01:29.000   4426042.7919    -89428.2006   4576297.8217   5   9   2.6541   1.7057   4.3808  -0.0772   1.5753   2.3726   0.00    0.0
2026/09/14 22:01:30.000   4426042.8592    -89428.2291   4576297.9029   5   9   2.6542   1.7056   4.3809  -0.0745   1.5751   2.3729   0.00    0.0
2026/09/14 22:01:31.000   4426042.8658    -89428.2529   4576297.9535   5   9   2.6543   1.7056   4.3809  -0.0716   1.5750   2.3732   0.00    0.0
2026/09/14 22:01:32.000   4426042.9221    -89428.1295   4576298.0148   5   9   2.6545   1.7055   4.3810  -0.0687   1.5749   2.3735   0.00    0.0
2026/09/14 22:01:33.000   4426042.9921    -89428.1427   4576298.0297   5   9   2.6546   1.7054   4.3810  -0.0656   1.5748   2.3739   0.00    0.0
2026/09/14 22:01:34.000   4426042.9388    -89428.1956   4576297.9928   5   9   2.6547   1.7054   4.3811  -0.0623   1.5747   2.3742   0.00    0.0
2026/09/14 22:01:35.000   4426042.7154    -89428.2834   4576297.9362   5   9   2.6548   1.7053   4.3811  -0.0589   1.5746   2.3745   0.00    0.0
2026/09/14 22:01:36.000   4426042.6525    -89428.2613   4576297.9016   5   9   2.6549   1.7053   4.3812  -0.0553   1.5745   2.3748   0.00    0.0
2026/09/14 22:01:37.000   4426042.5202    -89428.2868   4576297.8004   5   9   2.6550   1.7052   4.3812  -0.0514   1.5743   2.3751   0.00    0.0
2026/09/14 22:01:38.000   4426042.4987    -89428.3803   4576297.7671   5   9   2.6551   1.7051   4.3812  -0.0472   1.5742   2.3754   0.00    0.0
2026/09/14 22:01:39.000   4426042.4305    -89428.3797   4576297.8300   5   9   2.6553   1.7051   4.3813  -0.0426   1.5741   2.3758   0.00    0.0
2026/09/14 22:01:40.000   4426042.4640    -89428.3988   4576297.7471   5   9   2.6554   1.7050   4.3813  -0.0374   1.5740   2.3761   0.00    0.0
2026/09/14 22:01:41.000   4426042.5171    -89428.3271   4576297.7739   5   9   2.6555   1.7049   4.3814  -0.0314   1.5739   2.3764   0.00    0.0
2026/09/14 22:01:42.000   4426042.6219    -89428.2656   4576297.9192   5   9   2.6556   1.7049   4.3814  -0.0239   1.5738   2.3767   0.00    0.0
2026/09/14 22:01:43.000   4426042.5752    -89428.2255   4576297.9107   5   9   2.6557   1.7048   4.3814  -0.0126   1.5736   2.3770   0.00    0.0
2026/09/14 22:01:44.000   4426042.6439    -89428.2433   4576298.0438   5   9   2.6558   1.7048   4.3815   0.0159   1.5735   2.3773   0.00    0.0
2026/09/14 22:01:45.000   4426042.7219    -89428.2256   4576298.0906   5   9   2.6560   1.7047   4.3815   0.0258   1.5734   2.3776   0.00    0.0
2026/09/14 22:01:46.000   4426042.8345    -89428.1500   4576298.1987   5   9   2.6561   1.7046   4.3816   0.0328   1.5733   2.3780   0.00    0.0
2026/09/14 22:01:47.000   4426042.8181    -89428.2246   4576298.1666   5   9   2.6562   1.7046   4.3816   0.0386   1.5732   2.3783   0.00    0.0
2026/09/14 22:01:48.000   4426042.9024    -89428.1979   4576298.3876   5   9   2.6563   1.7045   4.3816   0.0436   1.5731   2.3786   0.00    0.0
2026/09/14 22:01:49.000   4426042.8033    -89428.2300   4576298.3542   5   9   2.6564   1.7044   4.3817   0.0481   1.5729   2.3789   0.00    0.0
2026/09/14 22:01:50.000   4426042.8956    -89428.3088   4576298.3500   5   9   2.6565   1.7044   4.3817   0.0522   1.5728   2.3792   0.00    0.0
2026/09/14 22:01:51.000   4426042.8782    -89428.3944   4576298.2373   5   9   2.6566   1.7043   4.3817   0.0560   1.5727   2.3795   0.00    0.0
2026/09/14 22:01:52.000   4426043.0210    -89428.3334   4576298.2285   5   9   2.6568   1.7043   4.3818   0.0595   1.5726   2.3798   0.00    0.0
2026/09/14 22:01:53.000   4426043.0525    -89428.3184   4576298.3242   5   9   2.6569   1.7042   4.3818   0.0628   1.5725   2.3801   0.00    0.0
2026/09/14 22:01:54.000   4426043.0971    -89428.3222   4576298.1864   5   9   2.6570   1.7041   4.3818   0.0660   1.5723   2.3804   0.00    0.0
2026/09/14 22:01:55.000   4426042.9792    -89428.2830   4576298.1788   5   9   2.6571   1.7041   4.3819   0.0691   1.5722   2.3808   0.00    0.0
2026/09/14 22:01:56.000   4426042.9731    -89428.2637   4576298.1399   5   9   2.6572   1.7040   4.3819   0.0720   1.5721   2.3811   0.00    0.0
2026/09/14 22:01:57.000   4426042.9815    -89428.2700   4576298.2006   5   9   2.6573   1.7039   4.3819   0.0747   1.5720   2.3814   0.00    0.0
2026/09/14 22:01:58.000   4426042.9101    -89428.3315   4576298.1525   5   9   2.6575   1.7039   4.3820   0.0774   1.5719   2.3817   0.00    0.0
2026/09/14 22:01:59.000   4426042.8980    -89428.3142   4576298.2604   5   9   2.6576   1.7038   4.3820   0.0800   1.5717   2.3820   0.00    0.0
2026/09/14 22:02:00.000   4426042.8228    -89428.3593   4576298.1616   5   9   2.6577   1.7037   4.3820   0.0825   1.5716   2.3823   0.00    0.0
2026/09/14 22:02:01.000   4426042.8474    -89428.2664   4576298.2582   5   9   2.6578   1.7037   4.3820   0.0850   1.5715   2.3826   0.00    0.0
2026/09/14 22:02:02.000   4426042.8231    -89428.2036   4576298.2030   5   9   2.6579   1.7036   4.3821   0.0873   1.5714   2.3829   0.00    0.0
2026/09/14 22:02:03.000   4426042.7671    -89428.1454   4576298.1036   5   9   2.6580   1.7036   4.3821   0.0896   1.5713   2.3832   0.00    0.0
2026/09/14 22:02:04.000   4426042.7539    -89428.0675   4576298.0616   5   9   2.6581   1.7035   4.3821   0.0919   1.5711   2.3835   0.00    0.0
2026/09/14 22:02:05.000   4426042.7203    -89428.1026   4576298.2121   5   9   2.6583   1.7034   4.3821   0.0940   1.5710   2.3838   0.00    0.0
2026/09/14 22:02:06.000   4426042.6454    -89428.1449   4576298.1603   5   9   2.6584   1.7034   4.3822   0.0962   1.5709   2.3841   0.00    0.0
2026/09/14 22:02:07.000   4426042.7839    -89428.1340   4576298.2422   5   9   2.6585   1.7033   4.3822   0.0983   1.5708   2.3844   0.00    0.0
2026/09/14 22:02:08.000   4426042.8056    -89428.1153   4576298.1978   5   9   2.6586   1.7032   4.3822   0.1003   1.5707   2.3847   0.00    0.0
2026/09/14 22:02:09.000   4426042.8778    -89428.0808   4576298.2173   5   9   2.6587   1.7032   4.3822   0.1023   1.5705   2.3850   0.00    0.0
2026/09/14 22:02:10.000   4426042.8888    -89428.1507   4576298.1644   5   9   2.6588   1.7031   4.3823   0.1043   1.5704   2.3853   0.00    0.0
2026/09/14 22:02:11.000   4426042.9469    -89428.1561   4576298.1434   5   9   2.6589   1.7031   4.3823   0.1062   1.5703   2.3857   0.00    0.0
2026/09/14 22:02:12.000   4426043.0371    -89428.2392   4576298.1029   5   9   2.6591   1.7030   4.3823   0.1081   1.5702   2.3860   0.00    0.0
2026/09/14 22:02:13.000   4426043.1275    -89428.2134   4576298.2645   5   9   2.6592   1.7029   4.3823   0.1099   1.5700   2.3863   0.00    0.0
