% program   : RTKLIB ver.2.4.2
% inp file  : receiver.obs
% inp file  : broadcast.nav
% obs start : 2026/09/14 21:55:41.0 GPST (week2436 165341.0s)
% obs end   : 2026/09/14 21:58:40.0 GPST (week2436 165520.0s)
% pos mode  : single
% elev mask : 10.0 deg
% ionos opt : broadcast
% tropo opt : saastamoinen
% ephemeris : broadcast
%
% (x/y/z-ecef=WGS84,Q=1:fix,2:float,3:sbas,4:dgps,5:single,6:ppp,ns=# of satellites)
%  GPST                      x-ecef(m)      y-ecef(m)      z-ecef(m)   Q  ns   sdx(m)   sdy(m)   sdz(m)  sdxy(m)  sdyz(m)  sdzx(m) age(s)  ratio
2026/09/14 21:55:41.000   4426042.7840    -89427.8656   4576298.0796   5   9   2.6141   1.7282   4.3300  -0.4090   1.6006   2.2409   0.00    0.0
2026/09/14 21:55:42.000   4426042.7381    -89427.9857   4576298.0306   5   9   2.6142   1.7281   4.3302  -0.4084   1.6006   2.2413   0.00    0.0
2026/09/14 21:55:43.000   4426042.7602    -89427.9224   4576298.0460   5   9   2.6143   1.7280   4.3304  -0.4078   1.6005   2.2417   0.00    0.0
2026/09/14 21:55:44.000   4426042.6515    -89427.8973   4576297.7273   5   9   2.6145   1.7280   4.3307  -0.4072   1.6005   2.2422   0.00    0.0
2026/09/14 21:55:45.000   4426042.5800    -89427.9388   4576297.6023   5   9   2.6146   1.7279   4.3309  -0.4066   1.6005   2.2426   0.00    0.0
2026/09/14 21:55:46.000   4426042.7057    -89427.9091   4576297.5751   5   9   2.6147   1.7278   4.3312  -0.4059   1.6004   2.2430   0.00    0.0
2026/09/14 21:55:47.000   4426042.7109    -89427.9466   4576297.3831   5   9   2.6148   1.7278   4.3314  -0.4053   1.6004   2.2435   0.00    0.0
2026/09/14 21:55:48.000   4426042.6862    -89427.8940   4576297.3637   5   9   2.6149   1.7277   4.3316  -0.4047   1.6004   2.2439   0.00    0.0
2026/09/14 21:55:49.000   4426042.6616    -89427.8884   4576297.4575   5   9   2.6150   1.7276   4.3319  -0.4041   1.6003   2.2443   0.00    0.0
2026/09/14 21:55:50.000   4426042.6722    -89427.8628   4576297.5921   5   9   2.6151   1.7276   4.3321  -0.4034   1.6003   2.2448   0.00    0.0
2026/09/14 21:55:51.000   4426042.6188    -89427.8544   4576297.6271   5   9   2.6152   1.7275   4.3323  -0.4028   1.6003   2.2452   0.00    0.0
2026/09/14 21:55:52.000   4426042.5965    -89427.8546   4576297.7186   5   9   2.6153   1.7274   4.3326  -0.4022   1.6002   2.2456   0.00    0.0
2026/09/14 21:55:53.000   4426042.4910    -89427.9335   4576297.5805   5   9   2.6155   1.7274   4.3328  -0.4015   1.6002   2.2461   0.00    0.0
2026/09/14 21:55:54.000   4426042.3811    -89427.9495   4576297.5641   5   9   2.6156   1.7273   4.3330  -0.4009   1.6001   2.2465   0.00    0.0
2026/09/14 21:55:55.000   4426042.5345    -89427.9777   4576297.5363   5   9   2.6157   1.7272   4.3333  -0.4003   1.6001   2.2469   0.00    0.0
2026/09/14 21:55:56.000   4426042.5641    -89427.9945   4576297.4813   5   9   2.6158   1.7272   4.3335  -0.3997   1.6001   2.2473   0.00    0.0
2026/09/14 21:55:57.000   4426042.5128    -89428.0416   4576297.1719   5   9   2.6159   1.7271   4.3337  -0.3990   1.6000   2.2478   0.00    0.0
2026/09/14 21:55:58.000   4426042.4568    -89427.9576   4576297.1800   5   9   2.6160   1.7271   4.3340  -0.3984   1.6000   2.2482   0.00    0.0
2026/09/14 21:55:59.000   4426042.4485    -89427.9084   4576297.0567   5   9   2.6161   1.7270   4.3342  -0.3978   1.6000   2.2486   0.00    0.0
2026/09/14 21:56:00.000   4426042.4676    -89427.9122   4576297.1264   5   9   2.6162   1.7269   4.3344  -0.3971   1.5999   2.2490   0.00    0.0
2026/09/14 21:56:01.000   4426042.5294    -89427.8711   4576297.2960   5   9   2.6163   1.7269   4.3347  -0.3965   1.5999   2.2495   0.00    0.0
2026/09/14 21:56:02.000   4426042.3466    -89427.8700   4576297.3252   5   9   2.6165   1.7268   4.3349  -0.3959   1.5999   2.2499   0.00    0.0
2026/09/14 21:56:03.000   4426042.5244    -89427.8577   4576297.4464   5   9   2.6166   1.7267   4.3351  -0.3952   1.5998   2.2503   0.00    0.0
2026/09/14 21:56:04.000   4426042.7496    -89427.9704   4576297.4810   5   9   2.6167   1.7267   4.3353  -0.3946   1.5998   2.2508   0.00    0.0
2026/09/14 21:56:05.000   4426042.7255    -89428.0045   4576297.4035   5   9   2.6168   1.7266   4.3356  -0.3939   1.5997   2.2512   0.00    0.0
2026/09/14 21:56:06.000   4426042.7411    -89427.9593   4576297.4540   5   9   2.6169   1.7265   4.3358  -0.3933   1.5997   2.2516   0.00    0.0
2026/09/14 21:56:07.000   4426042.6860    -89428.0126   4576297.3631   5   9   2.6170   1.7265   4.3360  -0.3927   1.5997   2.2520   0.00    0.0
2026/09/14 21:56:08.000   4426042.7974    -89427.9454   4576297.5600   5   9   2.6171   1.7264   4.3363  -0.3920   1.5996   2.2525   0.00    0.0
2026/09/14 21:56:09.000   4426042.9270    -89427.9473   4576297.6807   5   9   2.6172   1.7263   4.3365  -0.3914   1.5996   2.2529   0.00    0.0
2026/09/14 21:56:10.000   4426043.0931    -89427.9432   4576297.8287   5   9   2.6174   1.7263   4.3367  -0.3908   1.5995   2.2533   0.00    0.0
2026/09/14 21:56:11.000   4426042.9495    -89427.9428   4576297.7610   5   9   2.6175   1.7262   4.3369  -0.3901   1.5995   2.2537   0.00    0.0
2026/09/14 21:56:12.000   4426042.8647    -89427.9801   4576297.7382   5   9   2.6176   1.7261   4.3372  -0.3895   1.5995   2.2542   0.00    0.0
2026/09/14 21:56:13.000   4426042.7392    -89427.9405   4576297.6857   5   9   2.6177   1.7261   4.3374  -0.3888   1.5994   2.2546   0.00    0.0
2026/09/14 21:56:14.000   4426042.8981    -89427.9755   4576297.7390   5   9   2.6178   1.7260   4.3376  -0.3882   1.5994   2.2550   0.00    0.0
2026/09/14 21:56:15.000   4426043.1360    -89427.9879   4576297.8423   5   9   2.6179   1.7259   4.3378  -0.3875   1.5993   2.2554   0.00    0.0
2026/09/14 21:56:16.000   4426043.1685    -89428.0388   4576297.8520   5   9   2.6180   1.7259   4.3381  -0.3869   1.5993   2.2558   0.00    0.0
2026/09/14 21:56:17.000   4426043.2231    -89428.0581   4576297.9657   5   9   2.6181   1.7258   4.3383  -0.3862   1.5993   2.2563   0.00    0.0
2026/09/14 21:56:18.000   4426043.1408    -89428.0600   4576298.0539   5   9   2.6182   1.7257   4.3385  -0.3856   1.5992   2.2567   0.00    0.0
2026/09/14 21:56:19.000   4426043.1481    -89428.0949   4576297.9535   5   9   2.6184   1.7257   4.3387  -0.3849   1.5992   2.2571   0.00    0.0
2026/09/14 21:56:20.000   4426043.0620    -89428.0488   4576297.9181   5   9   2.6185   1.7256   4.3389  -0.3843   1.5991   2.2575   0.00    0.0
2026/09/14 21:56:21.000   4426042.9294    -89427.9945   4576297.8761   5   9   2.6186   1.7255   4.3392  -0.3837   1.5991   2.2580   0.00    0.0
2026/09/14 21:56:22.000   4426042.9103    -89428.0360   4576297.9208   5   9   2.6187   1.7255   4.3394  -0.3830   1.5990   2.2584   0.00    0.0
2026/09/14 21:56:23.000   4426043.0737    -89427.9742   4576298.0065   5   9   2.6188   1.7254   4.3396  -0.3824   1.5990   2.2588   0.00    0.0
2026/09/14 21:56:24.000   4426043.1264    -89428.0369   4576298.1011   5   9   2.6189   1.7253   4.3398  -0.3817   1.5990   2.2592   0.00    0.0
2026/09/14 21:56:25.000   4426043.1341    -89428.0748   4576297.9684   5   9   2.6190   1.7253   4.3400  -0.3810   1.5989   2.2596   0.00    0.0
2026/09/14 21:56:26.000   4426043.0987    -89428.0484   4576298.0137   5   9   2.6191   1.7252   4.3403  -0.3804   1.5989   2.2601   0.00    0.0
2026/09/14 21:56:27.000   4426042.9984    -89428.0921   4576298.0139   5   9   2.6193   1.7251   4.3405  -0.3797   1.5988   2.2605   0.00    0.0
2026/09/14 21:56:28.000   4426042.9604    -89428.0984   4576298.0178   5   9   2.6194   1.7251   4.3407  -0.3791   1.5988   2.2609   0.00    0.0
2026/09/14 21:56:29.000   4426042.9544    -89428.0932   4576298.1385   5   9   2.6195   1.7250   4.3409  -0.3784   1.5987   2.2613   0.00    0.0
2026/09/14 21:56:30.000   4426043.0742    -89428.1248   4576298.1853   5   9   2.6196   1.7249   4.3411  -0.3778   1.5987   2.2617   0.00    0.0
2026/09/14 21:56:31.000   4426043.0027    -89428.0962   4576298.1080   5   9   2.6197   1.7249   4.3413  -0.3771   1.5987   2.2622   0.00    0.0
2026/09/14 21:56:32.000   4426043.0449    -89428.0628   4576298.0130   5   9   2.6198   1.7248   4.3415  -0.3765   1.5986   2.2626   0.00    0.0
2026/09/14 21:56:33.000   4426043.0387    -89428.0106   4576297.9190   5   9   2.6199   1.7248   4.3418  -0.3758   1.5986   2.2630   0.00    0.0
2026/09/14 21:56:34.000   4426043.0554    -89427.9790   4576297.9837   5   9   2.6200   1.7247   4.3420  -0.3751   1.5985   2.2634   0.00    0.0
2026/09/14 21:56:35.000   4426043.1406    -89427.9520   4576298.0340   5   9   2.6202   1.7246   4.3422  -0.3745   1.5985   2.2638   0.00    0.0
2026/09/14 21:56:36.000   4426043.3050    -89427.9811   4576298.0493   5   9   2.6203   1.7246   4.3424  -0.3738   1.5984   2.2642   0.00    0.0
2026/09/14 21:56:37.000   4426043.2857    -89427.9959   4576298.0775   5   9   2.6204   1.7245   4.3426  -0.3732   1.5984   2.2647   0.00    0.0
2026/09/14 21:56:38.000   4426043.3660    -89427.9759   4576298.2328   5   9   2.6205   1.7244   4.3428  -0.3725   1.5983   2.2651   0.00    0.0
2026/09/14 21:56:39.000   4426043.2591    -89427.9306   4576298.2137   5   9   2.6206   1.7244   4.3430  -0.3718   1.5983   2.2655   0.00    0.0
2026/09/14 21:56:40.000   4426043.2448    -89427.9054   4576298.2696   5   9   2.6207   1.7243   4.3432  -0.3712   1.5983   2.2659   0.00    0.0
2026/09/14 21:56:41.000   4426043.1753    -89427.9368   4576298.1832   5   9   2.6208   1.7242   4.3435  -0.3705   1.5982   2.2663   0.00    0.0
2026/09/14 21:56:42.000   4426043.1431    -89427.9270   4576298.1650   5   9   2.6210   1.7242   4.3437  -0.3698   1.5982   2.2667   0.00    0.0
2026/09/14 21:56:43.000   4426043.1570    -89427.8838   4576298.1984   5   9   2.6211   1.7241   4.3439  -0.3692   1.5981   2.2672   0.00    0.0
2026/09/14 21:56:44.000   4426043.1411    -89427.8943   4576298.0791   5   9   2.6212   1.7240   4.3441  -0.3685   1.5981   2.2676   0.00    0.0
2026/09/14 21:56:45.000   4426043.2336    -89427.8583   4576298.0890   5   9   2.6213   1.7240   4.3443  -0.3678   1.5980   2.2680   0.00    0.0
2026/09/14 21:56:46.000   4426043.2860    -89427.8623   4576298.0411   5   9   2.6214   1.7239   4.3445  -0.3672   1.5980   2.2684   0.00    0.0
2026/09/14 21:56:47.000   4426043.1960    -89427.8175   4576297.8625   5   9   2.6215   1.7238   4.3447  -0.3665   1.5979   2.2688   0.00    0.0
2026/09/14 21:56:48.000   4426043.0588    -89427.7811   4576297.7537   5   9   2.6216   1.7238   4.3449  -0.3658   1.5979   2.2692   0.00    0.0
2026/09/14 21:56:49.000   4426043.0381    -89427.7448   4576297.7340   5   9   2.6217   1.7237   4.3451  -0.3651   1.5978   2.2696   0.00    0.0
2026/09/14 21:56:50.000   4426042.9788    -89427.8142   4576297.7023   5   9   2.6219   1.7236   4.3453  -0.3645   1.5978   2.2700   0.00    0.0
2026/09/14 21:56:51.000   4426043.0429    -89427.9154   4576297.7845   5   9   2.6220   1.7236   4.3455  -0.3638   1.5977   2.2705   0.00    0.0
2026/09/14 21:56:52.000   4426043.0919    -89427.9176   4576297.7960   5   9   2.6221   1.7235   4.3457  -0.3631   1.5977   2.2709   0.00    0.0
2026/09/14 21:56:53.000   4426043.0020    -89427.8776   4576297.7726   5   9   2.6222   1.7234   4.3459  -0.3624   1.5976   2.2713   0.00    0.0
2026/09/14 21:56:54.000   4426043.1239    -89427.9026   4576297.9682   5   9   2.6223   1.7234   4.3461  -0.3618   1.5976   2.2717   0.00    0.0
2026/09/14 21:56:55.000   4426043.1461    -89427.9310   4576298.0666   5   9   2.6224   1.7233   4.3463  -0.3611   1.5975   2.2721   0.00    0.0
2026/09/14 21:56:56.000   4426043.0731    -89427.9559   4576298.1495   5   9   2.6225   1.7232   4.3465  -0.3604   1.5975   2.2725   0.00    0.0
2026/09/14 21:56:57.000   4426043.2643    -89428.0051   4576298.3025   5   9   2.6227   1.7232   4.3467  -0.3597   1.5974   2.2729   0.00    0.0
2026/09/14 21:56:58.000   4426043.1615    -89427.9856   4576298.3337   5   9   2.6228   1.7231   4.3469  -0.3590   1.5974   2.2733   0.00    0.0
2026/09/14 21:56:59.000   4426043.1896    -89427.9415   4576298.2708   5   9   2.6229   1.7230   4.3471  -0.3584   1.5973   2.2737   0.00    0.0
2026/09/14 21:57:00.000   4426043.1704    -89427.9152   4576298.2034   5   9   2.6230   1.7230   4.3473  -0.3577   1.5973   2.2742   0.00    0.0
2026/09/14 21:57:01.000   4426043.1187    -89427.9625   4576298.1028   5   9   2.6231   1.7229   4.3475  -0.3570   1.5972   2.2746   0.00    0.0
2026/09/14 21:57:02.000   4426043.0791    -89427.9586   4576297.9652   5   9   2.6232   1.7229   4.3477  -0.3563   1.5972   2.2750   0.00    0.0
2026/09/14 21:57:03.000   4426042.9947    -89427.9414   4576297.7905   5   9   2.6233   1.7228   4.3479  -0.3556   1.5971   2.2754   0.00    0.0
2026/09/14 21:57:04.000   4426043.0758    -89427.9573   4576297.8555   5   9   2.6234   1.7227   4.3481  -0.3549   1.5971   2.2758   0.00    0.0
2026/09/14 21:57:05.000   4426043.0077    -89427.9719   4576297.8029   5   9   2.6236   1.7227   4.3483  -0.3543   1.5970   2.2762   0.00    0.0
2026/09/14 21:57:06.000   4426043.0247    -89427.9598   4576297.8910   5   9   2.6237   1.7226   4.3485  -0.3536   1.5970   2.2766   0.00    0.0
2026/09/14 21:57:07.000   4426043.0487    -89427.9363   4576297.9560   5   9   2.6238   1.7225   4.3487  -0.3529   1.5969   2.2770   0.00    0.0
2026/09/14 21:57:08.000   4426043.0287    -89427.9609   4576297.8950   5   9   2.6239   1.7225   4.3489  -0.3522   1.5969   2.2774   0.00    0.0
2026/09/14 21:57:09.000   4426043.0825    -89427.9796   4576298.0209   5   9   2.6240   1.7224   4.3491  -0.3515   1.5968   2.2778   0.00    0.0
2026/09/14 21:57:10.000   4426043.0902    -89428.0220   4576297.9968   5   9   2.6241   1.7223   4.3493  -0.3508   1.5968   2.2782   0.00    0.0
2026/09/14 21:57:11.000   4426043.0330    -89428.0410   4576297.8891   5   9   2.6242   1.7223   4.3495  -0.3501   1.5967   2.2786   0.00    0.0
2026/09/14 21:57:12.000   4426042.9846    -89427.9579   4576297.7269   5   9   2.6244   1.7222   4.3497  -0.3494   1.5967   2.2791   0.00    0.0
2026/09/14 21:57:13.000   4426042.9425    -89427.9992   4576297.6686   5   9   2.6245   1.7221   4.3499  -0.3487   1.5966   2.2795   0.00    0.0
2026/09/14 21:57:14.000   4426042.8941    -89427.9256   4576297.6184   5   9   2.6246   1.7221   4.3501  -0.3480   1.5965   2.2799   0.00    0.0
2026/09/14 21:57:15.000   4426043.0561    -89427.9317   4576297.8716   5   9   2.6247   1.7220   4.3503  -0.3473   1.5965   2.2803   0.00    0.0
2026/09/14 21:57:16.000   4426043.0863    -89427.9218   4576297.9323   5   9   2.6248   1.7219   4.3505  -0.3466   1.5964   2.2807   0.00    0.0
2026/09/14 21:57:17.000   4426043.1278    -89427.9495   4576298.0451   5   9   2.6249   1.7219   4.3506  -0.3459   1.5964   2.2811   0.00    0.0
2026/09/14 21:57:18.000   4426043.0369    -89427.8880   4576298.1541   5   9   2.6250   1.7218   4.3508  -0.3452   1.5963   2.2815   0.00    0.0
2026/09/14 21:57:19.000   4426043.0115    -89427.8964   4576298.0515   5   9   2.6252   1.7217   4.3510  -0.3445   1.5963   2.2819   0.00    0.0
2026/09/14 21:57:20.000   4426043.0934    -89427.8480   4576298.3396   5   9   2.6253   1.7217   4.3512  -0.3438   1.5962   2.2823   0.00    0.0
2026/09/14 21:57:21.000   4426043.0611    -89427.8626   4576298.3612   5   9   2.6254   1.7216   4.3514  -0.3431   1.5962   2.2827   0.00    0.0
2026/09/14 21:57:22.000   4426042.9853    -89427.8568   4576298.3064   5   9   2.6255   1.7215   4.3516  -0.3424   1.5961   2.2831   0.00    0.0
2026/09/14 21:57:23.000   4426043.0130    -89427.8312   4576298.2862   5   9   2.6256   1.7215   4.3518  -0.3417   1.5961   2.2835   0.00    0.0
2026/09/14 21:57:24.000   4426042.9797    -89427.9220   4576298.2287   5   9   2.6257   1.7214   4.3520  -0.3410   1.5960   2.2839   0.00    0.0
2026/09/14 21:57:25.000   4426042.9327    -89427.9640   4576298.1755   5   9   2.6258   1.7214   4.3522  -0.3403   1.5959   2.2843   0.00    0.0
2026/09/14 21:57:26.000   4426042.9013    -89427.9876   4576297.9847   5   9   2.6260   1.7213   4.3523  -0.3396   1.5959   2.2847   0.00    0.0
2026/09/14 21:57:27.000   4426042.9118    -89427.9601   4576298.0695   5   9   2.6261   1.7212   4.3525  -0.3389   1.5958   2.2851   0.00    0.0
2026/09/14 21:57:28.000   4426042.8944    -89427.9851   4576298.0961   5   9   2.6262   1.7212   4.3527  -0.3382   1.5958   2.2855   0.00    0.0
2026/09/14 21:57:29.000   4426042.9230    -89428.0327   4576298.2050   5   9   2.6263   1.7211   4.3529  -0.3374   1.5957   2.2859   0.00    0.0
2026/09/14 21:57:30.000   4426042.8778    -89428.0503   4576298.1494   5   9   2.6264   1.7210   4.3531  -0.3367   1.5957   2.2863   0.00    0.0
2026/09/14 21:57:31.000   4426042.9406    -89428.0625   4576298.1992   5   9   2.6265   1.7210   4.3533  -0.3360   1.5956   2.2867   0.00    0.0
2026/09/14 21:57:32.000   4426042.9956    -89428.0824   4576298.2160   5   9   2.6266   1.7209   4.3534  -0.3353   1.5955   2.2871   0.00    0.0
2026/09/14 21:57:33.000   4426043.0589    -89428.0800   4576298.2222   5   9   2.6268   1.7208   4.3536  -0.3346   1.5955   2.2875   0.00    0.0
2026/09/14 21:57:34.000   4426043.1787    -89428.1173   4576298.3419   5   9   2.6269   1.7208   4.3538  -0.3339   1.5954   2.2879   0.00    0.0
2026/09/14 21:57:35.000   4426043.2040    -89428.2018   4576298.2156   5   9   2.6270   1.7207   4.3540  -0.3331   1.5954   2.2883   0.00    0.0
2026/09/14 21:57:36.000   4426043.1440    -89428.1620   4576298.2696   5   9   2.6271   1.7206   4.3542  -0.3324   1.5953   2.2887   0.00    0.0
2026/09/14 21:57:37.000   4426043.2229    -89428.0694   4576298.3862   5   9   2.6272   1.7206   4.3543  -0.3317   1.5952   2.2891   0.00    0.0
2026/09/14 21:57:38.000   4426043.0577    -89428.0378   4576298.4646   5   9   2.6273   1.7205   4.3545  -0.3310   1.5952   2.2895   0.00    0.0
2026/09/14 21:57:39.000   4426042.9526    -89428.0644   4576298.3861   5   9   2.6275   1.7204   4.3547  -0.3302   1.5951   2.2899   0.00    0.0
2026/09/14 21:57:40.000   4426043.0243    -89427.9994   4576298.4472   5   9   2.6276   1.7204   4.3549  -0.3295   1.5951   2.2903   0.00    0.0
2026/09/14 21:57:41.000   4426043.0593    -89427.9403   4576298.4498   5   9   2.6277   1.7203   4.3551  -0.3288   1.5950   2.2907   0.00    0.0
2026/09/14 21:57:42.000   4426043.0199    -89427.8860   4576298.3873   5   9   2.6278   1.7202   4.3552  -0.3281   1.5949   2.2911   0.00    0.0
2026/09/14 21:57:43.000   4426043.0345    -89427.9053   4576298.3641   5   9   2.6279   1.7202   4.3554  -0.3273   1.5949   2.2915   0.00    0.0
2026/09/14 21:57:44.000   4426043.0548    -89427.9148   4576298.4551   5   9   2.6280   1.7201   4.3556  -0.3266   1.5948   2.2919   0.00    0.0
2026/09/14 21:57:45.000   4426042.9716    -89428.0335   4576298.4019   5   9   2.6281   1.7200   4.3558  -0.3259   1.5948   2.2923   0.00    0.0
2026/09/14 21:57:46.000   4426042.9069    -89428.0201   4576298.3612   5   9   2.6283   1.7200   4.3559  -0.3251   1.5947   2.2927   0.00    0.0
2026/09/14 21:57:47.000   4426042.8348    -89428.0513   4576298.2471   5   9   2.6284   1.7199   4.3561  -0.3244   1.5946   2.2931   0.00    0.0
2026/09/14 21:57:48.000   4426042.6730    -89428.0853   4576298.1905   5   9   2.6285   1.7199   4.3563  -0.3237   1.5946   2.2935   0.00    0.0
2026/09/14 21:57:49.000   4426042.6573    -89428.0237   4576298.1948   5   9   2.6286   1.7198   4.3565  -0.3229   1.5945   2.2939   0.00    0.0
2026/09/14 21:57:50.000   4426042.6428    -89427.9350   4576298.2227   5   9   2.6287   1.7197   4.3566  -0.3222   1.5945   2.2943   0.00    0.0
2026/09/14 21:57:51.000   4426042.6767    -89427.8999   4576298.1684   5   9   2.6288   1.7197   4.3568  -0.3215   1.5944   2.2947   0.00    0.0
2026/09/14 21:57:52.000   4426042.6363    -89427.8750   4576298.2185   5   9   2.6289   1.7196   4.3570  -0.3207   1.5943   2.2951   0.00    0.0
2026/09/14 21:57:53.000   4426042.7730    -89427.8803   4576298.3329   5   9   2.6291   1.7195   4.3572  -0.3200   1.5943   2.2954   0.00    0.0
2026/09/14 21:57:54.000   4426042.8019    -89427.9704   4576298.3935   5   9   2.6292   1.7195   4.3573  -0.3192   1.5942   2.2958   0.00    0.0
2026/09/14 21:57:55.000   4426042.7755    -89428.0001   4576298.2563   5   9   2.6293   1.7194   4.3575  -0.3185   1.5941   2.2962   0.00    0.0
2026/09/14 21:57:56.000   4426042.8385    -89427.9563   4576298.2230   5   9   2.6294   1.7193   4.3577  -0.3177   1.5941   2.2966   0.00    0.0
2026/09/14 21:57:57.000   4426042.8304    -89427.9330   4576298.3187   5   9   2.6295   1.7193   4.3578  -0.3170   1.5940   2.2970   0.00    0.0
2026/09/14 21:57:58.000   4426042.7741    -89427.9585   4576298.2596   5   9   2.6296   1.7192   4.3580  -0.3162   1.5940   2.2974   0.00    0.0
2026/09/14 21:57:59.000   4426042.6219    -89428.0319   4576298.1931   5   9   2.6298   1.7191   4.3582  -0.3155   1.5939   2.2978   0.00    0.0
2026/09/14 21:58:00.000   4426042.7193    -89428.0983   4576298.2581   5   9   2.6299   1.7191   4.3583  -0.3147   1.5938   2.2982   0.00    0.0
2026/09/14 21:58:01.000   4426042.5737    -89428.1454   4576298.1632   5   9   2.6300   1.7190   4.3585  -0.3140   1.5938   2.2986   0.00    0.0
2026/09/14 21:58:02.000   4426042.5945    -89428.1557   4576298.3271   5   9   2.6301   1.7189   4.3587  -0.3132   1.5937   2.2990   0.00    0.0
2026/09/14 21:58:03.000   4426042.5789    -89428.1497   4576298.3452   5   9   2.6302   1.7189   4.3588  -0.3125   1.5936   2.2994   0.00    0.0
2026/09/14 21:58:04.000   4426042.6109    -89428.0966   4576298.3520   5   9   2.6303   1.7188   4.3590  -0.3117   1.5936   2.2998   0.00    0.0
2026/09/14 21:58:05.000   4426042.4944    -89428.0651   4576298.2779   5   9   2.6304   1.7187   4.3592  -0.3110   1.5935   2.3001   0.00    0.0
2026/09/14 21:58:06.000   4426042.4965    -89428.0260   4576298.2714   5   9   2.6306   1.7187   4.3593  -0.3102   1.5934   2.3005   0.00    0.0
2026/09/14 21:58:07.000   4426042.4093    -89428.0165   4576298.1316   5   9   2.6307   1.7186   4.3595  -0.3094   1.5934   2.3009   0.00    0.0
2026/09/14 21:58:08.000   4426042.5164    -89428.0038   4576298.1353   5   9   2.6308   1.7186   4.3597  -0.3087   1.5933   2.3013   0.00    0.0
2026/09/14 21:58:09.000   4426042.4396    -89427.9420   4576298.0888   5   9   2.6309   1.7185   4.3598  -0.3079   1.5932   2.3017   0.00    0.0
2026/09/14 21:58:10.000   4426042.2299    -89427.8923   4576297.9269   5   9   2.6310   1.7184   4.3600  -0.3071   1.5932   2.3021   0.00    0.0
2026/09/14 21:58:11.000   4426042.2857    -89427.8122   4576297.8982   5   9   2.6311   1.7184   4.3601  -0.3064   1.5931   2.3025   0.00    0.0
2026/09/14 21:58:12.000   4426042.2763    -89427.8306   4576297.9907   5   9   2.6312   1.7183   4.3603  -0.3056   1.5930   2.3029   0.00    0.0
2026/09/14 21:58:13.000   4426042.3427    -89427.8490   4576297.9702   5   9   2.6314   1.7182   4.3605  -0.3048   1.5930   2.3033   0.00    0.0
2026/09/14 21:58:14.000   4426042.4617    -89427.8143   4576297.9553   5   9   2.6315   1.7182   4.3606  -0.3041   1.5929   2.3036   0.00    0.0
2026/09/14 21:58:15.000   4426042.4299    -89427.8183   4576297.8667   5   9   2.6316   1.7181   4.3608  -0.3033   1.5928   2.3040   0.00    0.0
2026/09/14 21:58:16.000   4426042.4574    -89427.7677   4576297.9026   5   9   2.6317   1.7180   4.3609  -0.3025   1.5928   2.3044   0.00    0.0
2026/09/14 21:58:17.000   4426042.6311    -89427.7692   4576298.0630   5   9   2.6318   1.7180   4.3611  -0.3017   1.5927   2.3048   0.00    0.0
2026/09/14 21:58:18.000   4426042.5564    -89427.7256   4576297.9138   5   9   2.6319   1.7179   4.3613  -0.3010   1.5926   2.3052   0.00    0.0
2026/09/14 21:58:19.000   4426042.4264    -89427.7731   4576297.8001   5   9   2.6321   1.7178   4.3614  -0.3002   1.5926   2.3056   0.00    0.0
2026/09/14 21:58:20.000   4426042.5785    -89427.7056   4576297.9906   5   9   2.6322   1.7178   4.3616  -0.2994   1.5925   2.3060   0.00    0.0
2026/09/14 21:58:21.000   4426042.6487    -89427.7702   4576298.0479   5   9   2.6323   1.7177   4.3617  -0.2986   1.5924   2.3063   0.00    0.0
2026/09/14 21:58:22.000   4426042.6972    -89427.7780   4576298.1004   5   9   2.6324   1.7176   4.3619  -0.2978   1.5923   2.3067   0.00    0.0
2026/09/14 21:58:23.000   4426042.7590    -89427.8339   4576298.0909   5   9   2.6325   1.7176   4.3620  -0.2970   1.5923   2.3071   0.00    0.0
2026/09/14 21:58:24.000   4426042.7633    -89427.8088   4576298.0161   5   9   2.6326   1.7175   4.3622  -0.2963   1.5922   2.3075   0.00    0.0
2026/09/14 21:58:25.000   4426042.8512    -89427.7604   4576298.1168   5   9   2.6328   1.7175   4.3623  -0.2955   1.5921   2.3079   0.00    0.0
2026/09/14 21:58:26.000   4426042.7644    -89427.7318   4576298.0087   5   9   2.6329   1.7174   4.3625  -0.2947   1.5921   2.3083   0.00    0.0
2026/09/14 21:58:27.000   4426042.7086    -89427.7956   4576297.9737   5   9   2.6330   1.7173   4.3626  -0.2939   1.5920   2.3086   0.00    0.0
2026/09/14 21:58:28.000   4426042.8088    -89427.8240   4576298.1277   5   9   2.6331   1.7173   4.3628  -0.2931   1.5919   2.3090   0.00    0.0
2026/09/14 21:58:29.000   4426042.8527    -89427.8418   4576298.2325   5   9   2.6332   1.7172   4.3629  -0.2923   1.5919   2.3094   0.00    0.0
2026/09/14 21:58:30.000   4426042.8562    -89427.8364   4576298.3628   5   9   2.6333   1.7171   4.3631  -0.2915   1.5918   2.3098   0.00    0.0
2026/09/14 21:58:31.000   4426042.7381    -89427.7387   4576298.3717   5   9   2.6334   1.7171   4.3632  -0.2907   1.5917   2.3102   0.00    0.0
2026/09/14 21:58:32.000   4426042.6740    -89427.7953   4576298.1831   5   9   2.6336   1.7170   4.3634  -0.2899   1.5916   2.3105   0.00    0.0
2026/09/14 21:58:33.000   4426042.6012    -89427.7644   4576298.0995   5   9   2.6337   1.7169   4.3635  -0.2891   1.5916   2.3109   0.00    0.0
2026/09/14 21:58:34.000   4426042.4662    -89427.7803   4576297.9925   5   9   2.6338   1.7169   4.3637  -0.2883   1.5915   2.3113   0.00    0.0
2026/09/14 21:58:35.000   4426042.3960    -89427.8440   4576297.9006   5   9   2.6339   1.7168   4.3638  -0.2875   1.5914   2.3117   0.00    0.0
2026/09/14 21:58:36.000   4426042.5178    -89427.8583   4576298.0026   5   9   2.6340   1.7167   4.3640  -0.2867   1.5913   2.3121   0.00    0.0
2026/09/14 21:58:37.000   4426042.6027    -89427.8935   4576297.9344   5   9   2.6341   1.7167   4.3641  -0.2859   1.5913   2.3124   0.00    0.0
2026/09/14 21:58:38.000   4426042.6705    -89427.8993   4576298.1216   5   9   2.6343   1.7166   4.3643  -0.2850   1.5912   2.3128   0.00    0.0
2026/09/14 21:58:39.000   4426042.8147    -89427.9001   4576298.2646   5   9   2.6344   1.7165   4.3644  -0.2842   1.5911   2.3132   0.00    0.0
2026/09/14 21:58:40.000   4426042.8185    -89427.7667   4576298.3179   5   9   2.6345   1.7165   4.3646  -0.2834   1.5911   2.3136   0.00    0.0
