% program   : RTKLIB ver.2.4.2
% inp file  : 07590920.05o
% inp file  : 07590920.05n
% obs start : 2005/04/02 00:00:00.0 GPST (week1316 518400.0s)
% obs end   : 2005/04/02 00:59:30.0 GPST (week1316 521970.0s)
% pos mode  : single
% elev mask : 10.0 deg
% ionos opt : broadcast
% tropo opt : saastamoinen
% ephemeris : broadcast
%
% (x/y/z-ecef=WGS84,Q=1:fix,2:float,3:sbas,4:dgps,5:single,6:ppp,ns=# of satellites)
%  GPST                      x-ecef(m)      y-ecef(m)      z-ecef(m)   Q  ns   sdx(m)   sdy(m)   sdz(m)  sdxy(m)  sdyz(m)  sdzx(m) age(s)  ratio
2005/04/02 00:00:00.000  -3976219.2244   3382373.3920   3652513.1662   5   7   4.1000   5.0915   4.0601  -4.0491   3.5339  -3.0379   0.00    0.0
2005/04/02 00:00:30.000  -3976219.1109   3382373.0059   3652512.9807   5   7   4.1050   5.0874   4.0622  -4.0491   3.5278  -3.0369   0.00    0.0
2005/04/02 00:01:00.000  -3976219.0910   3382372.8407   3652512.7625   5   7   4.1097   5.0831   4.0643  -4.0488   3.5214  -3.0356   0.00    0.0
2005/04/02 00:01:30.000  -3976219.6039   3382373.4228   3652512.9309   5   7   4.1143   5.0784   4.0661  -4.0483   3.5147  -3.0339   0.00    0.0
2005/04/02 00:02:00.000  -3976219.0607   3382372.8739   3652512.2827   5   7   4.1187   5.0736   4.0678  -4.0475   3.5076  -3.0320   0.00    0.0
2005/04/02 00:02:30.000  -3976219.4345   3382373.5939   3652513.1417   5   7   4.1229   5.0684   4.0694  -4.0464   3.5003  -3.0298   0.00    0.0
2005/04/02 00:03:00.000  -3976219.4857   3382373.1542   3652513.1023   5   7   4.1270   5.0630   4.0708  -4.0451   3.4925  -3.0273   0.00    0.0
2005/04/02 00:03:30.000  -3976219.3713   3382372.7507   3652512.7595   5   7   4.1308   5.0574   4.0720  -4.0435   3.4845  -3.0245   0.00    0.0
2005/04/02 00:04:00.000  -3976219.8019   3382373.5127   3652513.0925   5   7   4.1345   5.0516   4.0732  -4.0417   3.4762  -3.0214   0.00    0.0
2005/04/02 00:04:30.000  -3976219.2317   3382373.0986   3652513.1387   5   7   4.1381   5.0455   4.0742  -4.0397   3.4676  -3.0181   0.00    0.0
2005/04/02 00:05:00.000  -3976219.2347   3382372.7794   3652513.3518   5   7   4.1415   5.0393   4.0751  -4.0374   3.4586  -3.0145   0.00    0.0
2005/04/02 00:05:30.000  -3976219.1403   3382372.9209   3652512.5690   5   7   4.1448   5.0328   4.0758  -4.0349   3.4494  -3.0107   0.00    0.0
2005/04/02 00:06:00.000  -3976218.9568   3382372.7935   3652512.8636   5   7   4.1479   5.0262   4.0765  -4.0322   3.4399  -3.0066   0.00    0.0
2005/04/02 00:06:30.000  -3976219.7431   3382373.2765   3652512.8755   5   7   4.1509   5.0193   4.0771  -4.0293   3.4302  -3.0023   0.00    0.0
2005/04/02 00:07:00.000  -3976219.5524   3382372.9536   3652512.7610   5   7   4.1537   5.0123   4.0775  -4.0262   3.4202  -2.9977   0.00    0.0
2005/04/02 00:07:30.000  -3976219.7356   3382373.2057   3652512.7674   5   7   4.1565   5.0051   4.0779  -4.0229   3.4099  -2.9929   0.00    0.0
2005/04/02 00:08:00.000  -3976219.4470   3382373.1364   3652513.2832   5   7   4.1591   4.9977   4.0782  -4.0194   3.3993  -2.9879   0.00    0.0
2005/04/02 00:08:30.000  -3976219.2797   3382372.7162   3652512.8572   5   7   4.1616   4.9902   4.0784  -4.0157   3.3886  -2.9827   0.00    0.0
2005/04/02 00:09:00.000  -3976219.5366   3382372.9120   3652512.8204   5   7   4.1640   4.9826   4.0786  -4.0119   3.3776  -2.9772   0.00    0.0
2005/04/02 00:09:30.000  -3976219.3367   3382372.8880   3652512.6801   5   7   4.1663   4.9748   4.0787  -4.0079   3.3663  -2.9716   0.00    0.0
2005/04/02 00:10:00.000  -3976219.2372   3382372.8207   3652512.7476   5   7   4.1685   4.9669   4.0787  -4.0038   3.3549  -2.9657   0.00    0.0
2005/04/02 00:10:30.000  -3976219.1843   3382372.8664   3652512.8917   5   7   4.1707   4.9588   4.0787  -3.9995   3.3432  -2.9597   0.00    0.0
2005/04/02 00:11:00.000  -3976219.1834   3382372.6811   3652512.3954   5   7   4.1727   4.9507   4.0786  -3.9951   3.3314  -2.9535   0.00    0.0
2005/04/02 00:11:30.000  -3976218.7906   3382372.3254   3652512.3474   5   7   4.1747   4.9424   4.0785  -3.9906   3.3193  -2.9471   0.00    0.0
2005/04/02 00:12:00.000  -3976220.0313   3382373.5590   3652513.0839   5   7   4.1767   4.9341   4.0784  -3.9859   3.3070  -2.9406   0.00    0.0
2005/04/02 00:12:30.000  -3976219.6051   3382372.8850   3652512.4211   5   7   4.1786   4.9257   4.0782  -3.9812   3.2946  -2.9338   0.00    0.0
2005/04/02 00:13:00.000  -3976219.0863   3382373.1122   3652512.9438   5   7   4.1804   4.9172   4.0780  -3.9763   3.2820  -2.9270   0.00    0.0
2005/04/02 00:13:30.000  -3976218.9332   3382372.5384   3652512.4822   5   7   4.1822   4.9086   4.0778  -3.9714   3.2692  -2.9199   0.00    0.0
2005/04/02 00:14:00.000  -3976219.1046   3382372.5385   3652511.9859   5   7   4.1839   4.8999   4.0776  -3.9663   3.2563  -2.9128   0.00    0.0
2005/04/02 00:14:30.000  -3976219.1566   3382372.6813   3652512.4192   5   7   4.1856   4.8912   4.0774  -3.9612   3.2432  -2.9055   0.00    0.0
2005/04/02 00:15:00.000  -3976219.2979   3382373.1483   3652512.7729   5   7   4.1873   4.8825   4.0772  -3.9560   3.2300  -2.8980   0.00    0.0
2005/04/02 00:15:30.000  -3976219.3549   3382372.8665   3652512.4776   5   7   4.1889   4.8737   4.0770  -3.9507   3.2166  -2.8905   0.00    0.0
2005/04/02 00:16:00.000  -3976219.1521   3382372.9186   3652512.3635   5   7   4.1906   4.8649   4.0768  -3.9454   3.2031  -2.8828   0.00    0.0
2005/04/02 00:16:30.000  -3976219.5834   3382373.1147   3652512.5863   5   7   4.1922   4.8560   4.0766  -3.9401   3.1894  -2.8750   0.00    0.0
2005/04/02 00:17:00.000  -3976219.4464   3382373.3137   3652512.8249   5   7   4.1939   4.8472   4.0764  -3.9346   3.1757  -2.8671   0.00    0.0
2005/04/02 00:17:30.000  -3976219.2061   3382372.7278   3652512.3150   5   7   4.1955   4.8383   4.0762  -3.9292   3.1618  -2.8591   0.00    0.0
2005/04/02 00:18:00.000  -3976219.1381   3382372.7916   3652512.5772   5   7   4.1972   4.8294   4.0761  -3.9237   3.1478  -2.8510   0.00    0.0
2005/04/02 00:18:30.000  -3976219.2343   3382372.7138   3652512.0141   5   7   4.1988   4.8205   4.0760  -3.9182   3.1337  -2.8429   0.00    0.0
2005/04/02 00:19:00.000  -3976219.0686   3382372.8024   3652512.7974   5   7   4.2005   4.8117   4.0759  -3.9127   3.1195  -2.8346   0.00    0.0
2005/04/02 00:19:30.000  -3976219.1872   3382372.6928   3652512.3387   5   7   4.2022   4.8028   4.0759  -3.9072   3.1053  -2.8263   0.00    0.0
2005/04/02 00:20:00.000  -3976219.3182   3382373.0455   3652512.3085   5   7   4.2040   4.7940   4.0759  -3.9017   3.0909  -2.8179   0.00    0.0
2005/04/02 00:20:30.000  -3976219.6092   3382373.1380   3652512.6656   5   7   4.2058   4.7851   4.0759  -3.8962   3.0765  -2.8094   0.00    0.0
2005/04/02 00:20:59.999  -3976219.6665   3382373.3612   3652512.9319   5   7   4.2076   4.7763   4.0760  -3.8906   3.0619  -2.8008   0.00    0.0
2005/04/02 00:21:30.000  -3976219.8453   3382373.1203   3652512.4955   5   7   4.2095   4.7676   4.0761  -3.8851   3.0474  -2.7922   0.00    0.0
2005/04/02 00:22:00.000  -3976219.6160   3382372.9533   3652512.6807   5   7   4.2114   4.7589   4.0763  -3.8797   3.0327  -2.7836   0.00    0.0
2005/04/02 00:22:30.000  -3976219.5264   3382373.1357   3652512.7370   5   7   4.2134   4.7502   4.0766  -3.8742   3.0180  -2.7749   0.00    0.0
2005/04/02 00:23:00.000  -3976218.7130   3382372.1359   3652511.9105   5   7   4.2155   4.7416   4.0769  -3.8688   3.0033  -2.7662   0.00    0.0
2005/04/02 00:23:30.000  -3976219.4959   3382372.7615   3652512.9260   5   7   4.2176   4.7330   4.0772  -3.8634   2.9885  -2.7574   0.00    0.0
2005/04/02 00:24:00.000  -3976219.4351   3382373.0518   3652512.4837   5   7   4.2198   4.7246   4.0777  -3.8581   2.9736  -2.7486   0.00    0.0
2005/04/02 00:24:30.000  -3976218.9495   3382372.4385   3652511.6697   5   7   4.2221   4.7161   4.0782  -3.8528   2.9587  -2.7397   0.00    0.0
2005/04/02 00:25:00.000  -3976217.8971   3382372.0300   3652510.8629   5   7   4.2244   4.7078   4.0787  -3.8476   2.9438  -2.7309   0.00    0.0
2005/04/02 00:25:30.000  -3976219.3655   3382372.8520   3652512.5995   5   7   4.2269   4.6995   4.0793  -3.8424   2.9288  -2.7220   0.00    0.0
2005/04/02 00:26:00.000  -3976218.5079   3382372.1909   3652511.5479   5   7   4.2294   4.6913   4.0800  -3.8373   2.9139  -2.7131   0.00    0.0
2005/04/02 00:26:30.000  -3976219.3775   3382372.7493   3652512.4036   5   7   4.2320   4.6831   4.0808  -3.8323   2.8989  -2.7042   0.00    0.0
2005/04/02 00:27:00.000  -3976219.0858   3382372.3619   3652512.7568   5   7   4.2348   4.6751   4.0816  -3.8273   2.8838  -2.6953   0.00    0.0
2005/04/02 00:27:30.000  -3976218.6776   3382372.1872   3652511.5768   5   7   4.2376   4.6672   4.0825  -3.8225   2.8688  -2.6863   0.00    0.0
2005/04/02 00:28:00.000  -3976218.5822   3382372.1608   3652510.8521   5   7   4.2405   4.6593   4.0835  -3.8177   2.8538  -2.6774   0.00    0.0
2005/04/02 00:28:30.000  -3976219.5174   3382372.9398   3652513.1248   5   7   4.2436   4.6515   4.0845  -3.8129   2.8387  -2.6685   0.00    0.0
2005/04/02 00:29:00.000  -3976219.2956   3382372.6365   3652512.5546   5   7   4.2468   4.6439   4.0856  -3.8083   2.8237  -2.6596   0.00    0.0
2005/04/02 00:29:30.000  -3976218.2958   3382371.7492   3652511.6732   5   7   4.2501   4.6363   4.0868  -3.8038   2.8086  -2.6507   0.00    0.0
2005/04/02 00:30:00.000  -3976218.8869   3382372.4162   3652512.1022   5   7   4.2535   4.6289   4.0881  -3.7994   2.7936  -2.6418   0.00    0.0
2005/04/02 00:30:30.000  -3976219.9147   3382372.6572   3652513.2041   5   6   4.9974   4.7614   6.3559  -4.1715   3.6463  -4.4349   0.00    0.0
2005/04/02 00:31:00.000  -3976219.4255   3382372.5781   3652512.8295   5   6   5.0097   4.7556   6.3915  -4.1717   3.6453  -4.4527   0.00    0.0
2005/04/02 00:31:30.000  -3976219.6218   3382372.5922   3652512.8654   5   6   5.0221   4.7499   6.4272  -4.1718   3.6443  -4.4705   0.00    0.0
2005/04/02 00:32:00.000  -3976219.7673   3382372.7969   3652513.1071   5   6   5.0346   4.7442   6.4630  -4.1720   3.6433  -4.4883   0.00    0.0
2005/04/02 00:32:30.000  -3976219.3658   3382372.7936   3652512.5419   5   6   5.0471   4.7386   6.4989  -4.1723   3.6422  -4.5061   0.00    0.0
2005/04/02 00:33:00.000  -3976219.5126   3382372.5364   3652512.7909   5   6   5.0598   4.7330   6.5348  -4.1725   3.6411  -4.5240   0.00    0.0
2005/04/02 00:33:30.000  -3976219.1331   3382372.3091   3652512.5038   5   6   5.0725   4.7275   6.5708  -4.1728   3.6399  -4.5419   0.00    0.0
2005/04/02 00:34:00.000  -3976219.9727   3382372.7836   3652513.3206   5   6   5.0852   4.7221   6.6068  -4.1732   3.6387  -4.5598   0.00    0.0
2005/04/02 00:34:30.000  -3976219.0751   3382372.2681   3652512.6829   5   6   5.0981   4.7167   6.6428  -4.1736   3.6374  -4.5777   0.00    0.0
2005/04/02 00:35:00.000  -3976219.7267   3382372.7986   3652513.2193   5   6   5.1110   4.7115   6.6788  -4.1740   3.6361  -4.5955   0.00    0.0
2005/04/02 00:35:30.000  -3976219.5403   3382372.5831   3652512.8969   5   6   5.1240   4.7063   6.7148  -4.1745   3.6347  -4.6134   0.00    0.0
2005/04/02 00:36:00.000  -3976219.7920   3382372.3688   3652513.0515   5   6   5.1371   4.7012   6.7507  -4.1750   3.6333  -4.6312   0.00    0.0
2005/04/02 00:36:30.000  -3976219.0441   3382372.1829   3652512.7265   5   6   5.1503   4.6962   6.7865  -4.1756   3.6318  -4.6490   0.00    0.0
2005/04/02 00:37:00.000  -3976219.3278   3382372.3927   3652512.4525   5   6   5.1635   4.6912   6.8223  -4.1763   3.6302  -4.6667   0.00    0.0
2005/04/02 00:37:30.000  -3976219.8730   3382372.5096   3652513.2296   5   6   5.1768   4.6864   6.8579  -4.1770   3.6286  -4.6843   0.00    0.0
2005/04/02 00:38:00.000  -3976219.5424   3382372.6937   3652512.6809   5   6   5.1902   4.6817   6.8933  -4.1778   3.6270  -4.7019   0.00    0.0
2005/04/02 00:38:30.000  -3976219.7591   3382372.4736   3652513.0406   5   6   5.2037   4.6770   6.9285  -4.1786   3.6253  -4.7194   0.00    0.0
2005/04/02 00:39:00.000  -3976219.2291   3382372.2239   3652512.3619   5   6   5.2173   4.6725   6.9636  -4.1795   3.6235  -4.7368   0.00    0.0
2005/04/02 00:39:30.000  -3976219.7268   3382372.4610   3652513.0573   5   6   5.2309   4.6680   6.9983  -4.1805   3.6217  -4.7541   0.00    0.0
2005/04/02 00:40:00.000  -3976219.5400   3382372.3684   3652513.1123   5   6   5.2446   4.6637   7.0328  -4.1816   3.6198  -4.7712   0.00    0.0
2005/04/02 00:40:30.000  -3976219.4670   3382372.2989   3652513.1447   5   6   5.2584   4.6594   7.0670  -4.1827   3.6178  -4.7883   0.00    0.0
2005/04/02 00:41:00.000  -3976219.3439   3382372.2792   3652512.5752   5   6   5.2723   4.6553   7.1009  -4.1839   3.6158  -4.8051   0.00    0.0
2005/04/02 00:41:30.000  -3976219.1676   3382372.4702   3652512.2388   5   6   5.2862   4.6513   7.1344  -4.1853   3.6137  -4.8218   0.00    0.0
2005/04/02 00:42:00.000  -3976219.4861   3382372.5771   3652512.5576   5   6   5.3002   4.6474   7.1675  -4.1866   3.6115  -4.8383   0.00    0.0
2005/04/02 00:42:30.000  -3976219.0922   3382372.1714   3652512.2644   5   6   5.3143   4.6436   7.2001  -4.1881   3.6093  -4.8546   0.00    0.0
2005/04/02 00:43:00.000  -3976219.2509   3382372.2776   3652512.2614   5   6   5.3285   4.6399   7.2322  -4.1897   3.6070  -4.8707   0.00    0.0
2005/04/02 00:43:30.000  -3976219.3296   3382371.8124   3652512.3503   5   6   5.3427   4.6364   7.2639  -4.1914   3.6046  -4.8866   0.00    0.0
2005/04/02 00:44:00.000  -3976219.7994   3382372.2735   3652512.3174   5   6   5.3570   4.6329   7.2950  -4.1932   3.6022  -4.9022   0.00    0.0
2005/04/02 00:44:30.000  -3976219.6527   3382372.4351   3652512.4822   5   6   5.3714   4.6296   7.3255  -4.1950   3.5997  -4.9176   0.00    0.0
2005/04/02 00:45:00.000  -3976219.5044   3382371.9699   3652512.3030   5   6   5.3858   4.6264   7.3554  -4.1970   3.5971  -4.9327   0.00    0.0
2005/04/02 00:45:30.000  -3976219.0832   3382371.9638   3652512.5931   5   6   5.4003   4.6234   7.3846  -4.1991   3.5945  -4.9475   0.00    0.0
2005/04/02 00:46:00.000  -3976219.4603   3382372.0853   3652512.8524   5   6   5.4149   4.6204   7.4131  -4.2013   3.5918  -4.9620   0.00    0.0
2005/04/02 00:46:30.000  -3976219.0466   3382371.9795   3652512.4549   5   6   5.4295   4.6176   7.4409  -4.2036   3.5890  -4.9761   0.00    0.0
2005/04/02 00:47:00.000  -3976218.9551   3382371.7295   3652511.9706   5   6   5.4442   4.6150   7.4679  -4.2061   3.5861  -4.9900   0.00    0.0
2005/04/02 00:47:30.000  -3976219.4808   3382372.4751   3652512.3833   5   6   5.4589   4.6125   7.4941  -4.2086   3.5832  -5.0034   0.00    0.0
2005/04/02 00:48:00.000  -3976219.0331   3382371.8023   3652512.0345   5   6   5.4738   4.6101   7.5195  -4.2113   3.5802  -5.0165   0.00    0.0
2005/04/02 00:48:30.000  -3976219.4056   3382372.1195   3652512.9973   5   6   5.4886   4.6078   7.5440  -4.2141   3.5771  -5.0292   0.00    0.0
2005/04/02 00:49:00.000  -3976219.0805   3382372.0648   3652512.3559   5   6   5.5036   4.6057   7.5675  -4.2171   3.5739  -5.0415   0.00    0.0
2005/04/02 00:49:30.000  -3976219.4048   3382372.1820   3652512.6210   5   6   5.5186   4.6038   7.5901  -4.2202   3.5707  -5.0534   0.00    0.0
2005/04/02 00:50:00.000  -3976219.1831   3382372.2323   3652512.0561   5   6   5.5337   4.6020   7.6118  -4.2234   3.5674  -5.0649   0.00    0.0
2005/04/02 00:50:30.000  -3976219.4518   3382372.3263   3652512.1057   5   6   5.5488   4.6003   7.6324  -4.2268   3.5641  -5.0759   0.00    0.0
2005/04/02 00:51:00.000  -3976219.1384   3382372.2761   3652511.9313   5   6   5.5640   4.5988   7.6519  -4.2303   3.5607  -5.0864   0.00    0.0
2005/04/02 00:51:30.000  -3976219.0254   3382371.8408   3652512.3438   5   6   5.5793   4.5975   7.6704  -4.2340   3.5573  -5.0965   0.00    0.0
2005/04/02 00:52:00.000  -3976218.7788   3382371.9759   3652512.0806   5   6   5.5947   4.5963   7.6878  -4.2378   3.5537  -5.1061   0.00    0.0
2005/04/02 00:52:30.000  -3976219.0589   3382371.5609   3652512.3091   5   6   5.6101   4.5952   7.7040  -4.2418   3.5502  -5.1153   0.00    0.0
2005/04/02 00:53:00.000  -3976218.6289   3382371.7666   3652511.8015   5   6   5.6256   4.5944   7.7191  -4.2460   3.5466  -5.1239   0.00    0.0
2005/04/02 00:53:30.000  -3976218.7484   3382371.5119   3652511.8086   5   7   4.2719   4.3953   4.9283  -3.6256   2.1436  -2.0934   0.00    0.0
2005/04/02 00:54:00.000  -3976218.4173   3382370.6881   3652511.7918   5   8   4.0007   3.5057   4.8806  -3.0210   1.5867  -1.7849   0.00    0.0
2005/04/02 00:54:30.000  -3976217.9760   3382370.8112   3652511.2985   5   8   4.0105   3.5055   4.8956  -3.0241   1.5881  -1.7848   0.00    0.0
2005/04/02 00:55:00.000  -3976218.4518   3382370.6164   3652511.4968   5   8   4.0203   3.5053   4.9104  -3.0273   1.5897  -1.7848   0.00    0.0
2005/04/02 00:55:30.000  -3976218.2877   3382370.8099   3652511.4865   5   8   4.0303   3.5051   4.9249  -3.0306   1.5915  -1.7848   0.00    0.0
2005/04/02 00:56:00.000  -3976218.4006   3382370.6875   3652511.6823   5   8   4.0404   3.5051   4.9391  -3.0340   1.5936  -1.7850   0.00    0.0
2005/04/02 00:56:30.000  -3976218.1106   3382370.7914   3652510.6905   5   8   4.0507   3.5051   4.9531  -3.0375   1.5957  -1.7852   0.00    0.0
2005/04/02 00:57:00.000  -3976218.1692   3382370.8203   3652511.0273   5   8   4.0610   3.5052   4.9668  -3.0410   1.5981  -1.7855   0.00    0.0
2005/04/02 00:57:30.000  -3976218.3393   3382370.6811   3652511.4153   5   8   4.0715   3.5054   4.9801  -3.0447   1.6007  -1.7859   0.00    0.0
2005/04/02 00:58:00.000  -3976218.6967   3382370.9653   3652511.6854   5   8   4.0821   3.5056   4.9932  -3.0484   1.6035  -1.7863   0.00    0.0
2005/04/02 00:58:30.000  -3976218.1289   3382370.4880   3652511.9033   5   8   4.0928   3.5059   5.0059  -3.0523   1.6065  -1.7869   0.00    0.0
2005/04/02 00:59:00.000  -3976218.0887   3382370.6141   3652511.4212   5   8   4.1037   3.5063   5.0183  -3.0562   1.6096  -1.7875   0.00    0.0
2005/04/02 00:59:30.000  -3976218.2170   3382370.6213   3652511.1966   5   8   4.1147   3.5068   5.0304  -3.0602   1.6130  -1.7883   0.00    0.0
