% program   : RTKLIB ver.2.4.2
% inp file  : receiver.obs
% inp file  : broadcast.nav
% obs start : 2026/09/14 21:41:23.0 GPST (week2436 164483.0s)
% obs end   : 2026/09/14 21:46:22.0 GPST (week2436 164782.0s)
% pos mode  : single
% elev mask : 10.0 deg
% ionos opt : broadcast
% tropo opt : saastamoinen
% ephemeris : broadcast
%
% (x/y/z-ecef=WGS84,Q=1:fix,2:float,3:sbas,4:dgps,5:single,6:ppp,ns=# of satellites)
%  GPST                      x-ecef(m)      y-ecef(m)      z-ecef(m)   Q  ns   sdx(m)   sdy(m)   sdz(m)  sdxy(m)  sdyz(m)  sdzx(m) age(s)  ratio
2026/09/14 21:41:23.000   4426045.9501    -89428.6666   4576299.4201   5   7   4.2301   2.1878   4.2431  -1.9593   0.8345   2.7806   0.00    0.0
2026/09/14 21:41:24.000   4426045.8607    -89428.6540   4576299.3686   5   7   4.2300   2.1876   4.2437  -1.9587   0.8349   2.7812   0.00    0.0
2026/09/14 21:41:25.000   4426045.7503    -89428.6356   4576299.3297   5   7   4.2298   2.1874   4.2443  -1.9582   0.8352   2.7818   0.00    0.0
2026/09/14 21:41:26.000   4426045.7448    -89428.6747   4576299.2684   5   7   4.2297   2.1872   4.2448  -1.9576   0.8356   2.7824   0.00    0.0
2026/09/14 21:41:27.000   4426045.8423    -89428.7171   4576299.3093   5   7   4.2295   2.1870   4.2454  -1.9571   0.8360   2.7830   0.00    0.0
2026/09/14 21:41:28.000   4426045.9680    -89428.7624   4576299.3830   5   7   4.2294   2.1868   4.2460  -1.9565   0.8363   2.7836   0.00    0.0
2026/09/14 21:41:29.000   4426045.7768    -89428.7289   4576299.2887   5   7   4.2293   2.1866   4.2466  -1.9560   0.8367   2.7842   0.00    0.0
2026/09/14 21:41:30.000   4426045.6023    -89428.6719   4576299.1468   5   7   4.2291   2.1864   4.2472  -1.9554   0.8370   2.7848   0.00    0.0
2026/09/14 21:41:31.000   4426045.5100    -89428.6125   4576299.0740   5   7   4.2290   2.1862   4.2477  -1.9549   0.8374   2.7854   0.00    0.0
2026/09/14 21:41:32.000   4426045.6679    -89428.6513   4576299.2317   5   7   4.2288   2.1860   4.2483  -1.9543   0.8377   2.7861   0.00    0.0
2026/09/14 21:41:33.000   4426045.7674    -89428.6076   4576299.3179   5   7   4.2287   2.1858   4.2489  -1.9538   0.8381   2.7867   0.00    0.0
2026/09/14 21:41:34.000   4426045.7993    -89428.6140   4576299.3378   5   7   4.2285   2.1856   4.2495  -1.9532   0.8384   2.7873   0.00    0.0
2026/09/14 21:41:35.000   4426045.9032    -89428.5812   4576299.4708   5   7   4.2284   2.1854   4.2501  -1.9527   0.8388   2.7879   0.00    0.0
2026/09/14 21:41:36.000   4426045.8763    -89428.6240   4576299.3882   5   7   4.2282   2.1853   4.2507  -1.9521   0.8391   2.7885   0.00    0.0
2026/09/14 21:41:37.000   4426045.7522    -89428.5217   4576299.5254   5   7   4.2281   2.1851   4.2512  -1.9516   0.8395   2.7891   0.00    0.0
2026/09/14 21:41:38.000   4426045.6439    -89428.5127   4576299.5130   5   7   4.2279   2.1849   4.2518  -1.9510   0.8398   2.7897   0.00    0.0
2026/09/14 21:41:39.000   4426045.5390    -89428.5075   4576299.3884   5   7   4.2278   2.1847   4.2524  -1.9505   0.8402   2.7903   0.00    0.0
2026/09/14 21:41:40.000   4426045.5234    -89428.6157   4576299.3144   5   7   4.2277   2.1845   4.2530  -1.9499   0.8406   2.7909   0.00    0.0
2026/09/14 21:41:41.000   4426045.6753    -89428.6647   4576299.3446   5   7   4.2275   2.1843   4.2536  -1.9494   0.8409   2.7915   0.00    0.0
2026/09/14 21:41:42.000   4426045.7230    -89428.6543   4576299.3972   5   7   4.2274   2.1841   4.2541  -1.9488   0.8413   2.7922   0.00    0.0
2026/09/14 21:41:43.000   4426045.5707    -89428.6526   4576299.2085   5   7   4.2272   2.1839   4.2547  -1.9483   0.8416   2.7928   0.00    0.0
2026/09/14 21:41:44.000   4426045.5808    -89428.6088   4576299.3502   5   7   4.2271   2.1837   4.2553  -1.9477   0.8420   2.7934   0.00    0.0
2026/09/14 21:41:45.000   4426045.4818    -89428.6511   4576299.2534   5   7   4.2269   2.1835   4.2559  -1.9472   0.8423   2.7940   0.00    0.0
2026/09/14 21:41:46.000   4426045.3365    -89428.6391   4576299.1339   5   7   4.2268   2.1833   4.2565  -1.9466   0.8427   2.7946   0.00    0.0
2026/09/14 21:41:47.000   4426045.2986    -89428.6373   4576299.0874   5   7   4.2267   2.1831   4.2571  -1.9461   0.8430   2.7952   0.00    0.0
2026/09/14 21:41:48.000   4426045.3920    -89428.6580   4576299.1501   5   7   4.2265   2.1830   4.2576  -1.9455   0.8434   2.7958   0.00    0.0
2026/09/14 21:41:49.000   4426045.4994    -89428.5999   4576299.4622   5   7   4.2264   2.1828   4.2582  -1.9450   0.8437   2.7964   0.00    0.0
2026/09/14 21:41:50.000   4426045.5261    -89428.5369   4576299.4836   5   7   4.2262   2.1826   4.2588  -1.9444   0.8441   2.7970   0.00    0.0
2026/09/14 21:41:51.000   4426045.4712    -89428.4845   4576299.5559   5   7   4.2261   2.1824   4.2594  -1.9439   0.8445   2.7977   0.00    0.0
2026/09/14 21:41:52.000   4426045.4539    -89428.4696   4576299.6225   5   7   4.2259   2.1822   4.2600  -1.9433   0.8448   2.7983   0.00    0.0
2026/09/14 21:41:53.000   4426045.4398    -89428.4485   4576299.8182   5   7   4.2258   2.1820   4.2605  -1.9428   0.8452   2.7989   0.00    0.0
2026/09/14 21:41:54.000   4426045.3174    -89428.4350   4576299.7411   5   7   4.2257   2.1818   4.2611  -1.9422   0.8455   2.7995   0.00    0.0
2026/09/14 21:41:55.000   4426045.0644    -89428.4372   4576299.5701   5   7   4.2255   2.1816   4.2617  -1.9417   0.8459   2.8001   0.00    0.0
2026/09/14 21:41:56.000   4426044.9908    -89428.4627   4576299.4730   5   7   4.2254   2.1814   4.2623  -1.9411   0.8462   2.8007   0.00    0.0
2026/09/14 21:41:57.000   4426045.0411    -89428.4293   4576299.3611   5   7   4.2253   2.1812   4.2629  -1.9406   0.8466   2.8013   0.00    0.0
2026/09/14 21:41:58.000   4426045.0937    -89428.4097   4576299.4039   5   7   4.2251   2.1811   4.2634  -1.9400   0.8469   2.8019   0.00    0.0
2026/09/14 21:41:59.000   4426045.0611    -89428.4017   4576299.4674   5   7   4.2250   2.1809   4.2640  -1.9395   0.8473   2.8026   0.00    0.0
2026/09/14 21:42:00.000   4426045.1336    -89428.4536   4576299.4866   5   7   4.2248   2.1807   4.2646  -1.9389   0.8477   2.8032   0.00    0.0
2026/09/14 21:42:01.000   4426044.9726    -89428.5205   4576299.3267   5   7   4.2247   2.1805   4.2652  -1.9384   0.8480   2.8038   0.00    0.0
2026/09/14 21:42:02.000   4426045.0815    -89428.5474   4576299.4050   5   7   4.2246   2.1803   4.2658  -1.9378   0.8484   2.8044   0.00    0.0
2026/09/14 21:42:03.000   4426044.9348    -89428.5144   4576299.2565   5   7   4.2244   2.1801   4.2663  -1.9373   0.8487   2.8050   0.00    0.0
2026/09/14 21:42:04.000   4426045.2399    -89428.5436   4576299.4848   5   7   4.2243   2.1799   4.2669  -1.9367   0.8491   2.8056   0.00    0.0
2026/09/14 21:42:05.000   4426045.2191    -89428.4987   4576299.4229   5   7   4.2242   2.1797   4.2675  -1.9362   0.8494   2.8062   0.00    0.0
2026/09/14 21:42:06.000   4426045.2958    -89428.4974   4576299.4256   5   7   4.2240   2.1795   4.2681  -1.9356   0.8498   2.8068   0.00    0.0
2026/09/14 21:42:07.000   4426045.2955    -89428.4401   4576299.5682   5   7   4.2239   2.1793   4.2687  -1.9351   0.8501   2.8074   0.00    0.0
2026/09/14 21:42:08.000   4426045.4881    -89428.3431   4576299.8461   5   7   4.2238   2.1792   4.2692  -1.9345   0.8505   2.8081   0.00    0.0
2026/09/14 21:42:09.000   4426045.5533    -89428.3340   4576300.0920   5   7   4.2236   2.1790   4.2698  -1.9340   0.8509   2.8087   0.00    0.0
2026/09/14 21:42:10.000   4426045.5666    -89428.3418   4576300.1073   5   7   4.2235   2.1788   4.2704  -1.9334   0.8512   2.8093   0.00    0.0
2026/09/14 21:42:11.000   4426045.5947    -89428.3399   4576300.0361   5   7   4.2234   2.1786   4.2710  -1.9329   0.8516   2.8099   0.00    0.0
2026/09/14 21:42:12.000   4426045.4644    -89428.2710   4576299.8457   5   7   4.2232   2.1784   4.2716  -1.9323   0.8519   2.8105   0.00    0.0
2026/09/14 21:42:13.000   4426045.3529    -89428.2411   4576299.7250   5   7   4.2231   2.1782   4.2721  -1.9318   0.8523   2.8111   0.00    0.0
2026/09/14 21:42:14.000   4426045.4249    -89428.1786   4576299.7828   5   7   4.2230   2.1780   4.2727  -1.9312   0.8526   2.8117   0.00    0.0
2026/09/14 21:42:15.000   4426045.0682    -89428.2474   4576299.5455   5   7   4.2228   2.1778   4.2733  -1.9306   0.8530   2.8124   0.00    0.0
2026/09/14 21:42:16.000   4426045.1273    -89428.1934   4576299.4329   5   7   4.2227   2.1777   4.2739  -1.9301   0.8533   2.8130   0.00    0.0
2026/09/14 21:42:17.000   4426045.1096    -89428.3178   4576299.3332   5   7   4.2226   2.1775   4.2745  -1.9295   0.8537   2.8136   0.00    0.0
2026/09/14 21:42:18.000   4426045.0424    -89428.3476   4576299.1655   5   7   4.2224   2.1773   4.2750  -1.9290   0.8540   2.8142   0.00    0.0
2026/09/14 21:42:19.000   4426045.0914    -89428.3145   4576299.1913   5   7   4.2223   2.1771   4.2756  -1.9284   0.8544   2.8148   0.00    0.0
2026/09/14 21:42:20.000   4426044.9010    -89428.2710   4576299.1207   5   7   4.2222   2.1769   4.2762  -1.9279   0.8548   2.8154   0.00    0.0
2026/09/14 21:42:21.000   4426045.0309    -89428.2814   4576299.1981   5   7   4.2220   2.1767   4.2768  -1.9273   0.8551   2.8160   0.00    0.0
2026/09/14 21:42:22.000   4426045.1556    -89428.2341   4576299.3200   5   7   4.2219   2.1765   4.2774  -1.9268   0.8555   2.8166   0.00    0.0
2026/09/14 21:42:23.000   4426045.4271    -89428.2361   4576299.4965   5   7   4.2218   2.1763   4.2779  -1.9262   0.8558   2.8173   0.00    0.0
2026/09/14 21:42:24.000   4426045.4933    -89428.1949   4576299.5628   5   7   4.2216   2.1762   4.2785  -1.9257   0.8562   2.8179   0.00    0.0
2026/09/14 21:42:25.000   4426045.4712    -89428.1810   4576299.6014   5   7   4.2215   2.1760   4.2791  -1.9251   0.8565   2.8185   0.00    0.0
2026/09/14 21:42:26.000   4426045.3815    -89428.1386   4576299.5359   5   7   4.2214   2.1758   4.2797  -1.9246   0.8569   2.8191   0.00    0.0
2026/09/14 21:42:27.000   4426045.1094    -89428.2136   4576299.3325   5   7   4.2213   2.1756   4.2803  -1.9240   0.8573   2.8197   0.00    0.0
2026/09/14 21:42:28.000   4426045.1514    -89428.3348   4576299.2426   5   7   4.2211   2.1754   4.2808  -1.9235   0.8576   2.8203   0.00    0.0
2026/09/14 21:42:29.000   4426045.1199    -89428.3847   4576299.2084   5   7   4.2210   2.1752   4.2814  -1.9229   0.8580   2.8209   0.00    0.0
2026/09/14 21:42:30.000   4426044.9998    -89428.2877   4576299.2250   5   7   4.2209   2.1750   4.2820  -1.9224   0.8583   2.8216   0.00    0.0
2026/09/14 21:42:31.000   4426044.9781    -89428.3264   4576299.2159   5   7   4.2207   2.1748   4.2826  -1.9218   0.8587   2.8222   0.00    0.0
2026/09/14 21:42:32.000   4426044.9674    -89428.3575   4576299.2457   5   7   4.2206   2.1747   4.2832  -1.9213   0.8590   2.8228   0.00    0.0
2026/09/14 21:42:33.000   4426044.8657    -89428.3567   4576299.2282   5   7   4.2205   2.1745   4.2837  -1.9207   0.8594   2.8234   0.00    0.0
2026/09/14 21:42:34.000   4426044.8917    -89428.4165   4576299.2480   5   7   4.2204   2.1743   4.2843  -1.9202   0.8597   2.8240   0.00    0.0
2026/09/14 21:42:35.000   4426044.9910    -89428.4636   4576299.3267   5   7   4.2202   2.1741   4.2849  -1.9196   0.8601   2.8246   0.00    0.0
2026/09/14 21:42:36.000   4426045.1032    -89428.4719   4576299.4318   5   7   4.2201   2.1739   4.2855  -1.9191   0.8605   2.8252   0.00    0.0
2026/09/14 21:42:37.000   4426045.1486    -89428.5067   4576299.4614   5   7   4.2200   2.1737   4.2861  -1.9185   0.8608   2.8259   0.00    0.0
2026/09/14 21:42:38.000   4426045.2415    -89428.4718   4576299.4565   5   7   4.2199   2.1735   4.2866  -1.9180   0.8612   2.8265   0.00    0.0
2026/09/14 21:42:39.000   4426045.3905    -89428.5175   4576299.5648   5   7   4.2197   2.1734   4.2872  -1.9174   0.8615   2.8271   0.00    0.0
2026/09/14 21:42:40.000   4426045.6051    -89428.5071   4576299.7772   5   7   4.2196   2.1732   4.2878  -1.9168   0.8619   2.8277   0.00    0.0
2026/09/14 21:42:41.000   4426045.3207    -89428.4501   4576299.5380   5   7   4.2195   2.1730   4.2884  -1.9163   0.8622   2.8283   0.00    0.0
2026/09/14 21:42:42.000   4426045.3564    -89428.4510   4576299.4939   5   7   4.2194   2.1728   4.2889  -1.9157   0.8626   2.8289   0.00    0.0
2026/09/14 21:42:43.000   4426045.3927    -89428.4244   4576299.5198   5   7   4.2192   2.1726   4.2895  -1.9152   0.8629   2.8295   0.00    0.0
2026/09/14 21:42:44.000   4426045.3344    -89428.4427   4576299.5037   5   7   4.2191   2.1724   4.2901  -1.9146   0.8633   2.8302   0.00    0.0
2026/09/14 21:42:45.000   4426045.1714    -89428.4601   4576299.3768   5   7   4.2190   2.1723   4.2907  -1.9141   0.8637   2.8308   0.00    0.0
2026/09/14 21:42:46.000   4426044.8856    -89428.3563   4576299.0682   5   7   4.2189   2.1721   4.2913  -1.9135   0.8640   2.8314   0.00    0.0
2026/09/14 21:42:47.000   4426044.9192    -89428.4176   4576299.0405   5   7   4.2187   2.1719   4.2918  -1.9130   0.8644   2.8320   0.00    0.0
2026/09/14 21:42:48.000   4426045.0813    -89428.4621   4576299.0455   5   7   4.2186   2.1717   4.2924  -1.9124   0.8647   2.8326   0.00    0.0
2026/09/14 21:42:49.000   4426045.3547    -89428.4642   4576299.0677   5   7   4.2185   2.1715   4.2930  -1.9119   0.8651   2.8332   0.00    0.0
2026/09/14 21:42:50.000   4426045.4631    -89428.5349   4576299.1756   5   7   4.2184   2.1713   4.2936  -1.9113   0.8654   2.8338   0.00    0.0
2026/09/14 21:42:51.000   4426045.5860    -89428.4521   4576299.4120   5   7   4.2183   2.1711   4.2941  -1.9108   0.8658   2.8345   0.00    0.0
2026/09/14 21:42:52.000   4426045.6688    -89428.4606   4576299.4803   5   7   4.2181   2.1710   4.2947  -1.9102   0.8662   2.8351   0.00    0.0
2026/09/14 21:42:53.000   4426045.5509    -89428.4728   4576299.4497   5   7   4.2180   2.1708   4.2953  -1.9097   0.8665   2.8357   0.00    0.0
2026/09/14 21:42:54.000   4426045.3036    -89428.5115   4576299.3269   5   7   4.2179   2.1706   4.2959  -1.9091   0.8669   2.8363   0.00    0.0
2026/09/14 21:42:55.000   4426044.9965    -89428.5714   4576299.1335   5   7   4.2178   2.1704   4.2965  -1.9086   0.8672   2.8369   0.00    0.0
2026/09/14 21:42:56.000   4426044.8109    -89428.6194   4576298.9800   5   7   4.2177   2.1702   4.2970  -1.9080   0.8676   2.8375   0.00    0.0
2026/09/14 21:42:57.000   4426044.6192    -89428.5797   4576298.8011   5   7   4.2175   2.1700   4.2976  -1.9074   0.8679   2.8381   0.00    0.0
2026/09/14 21:42:58.000   4426044.5054    -89428.4904   4576298.7693   5   7   4.2174   2.1699   4.2982  -1.9069   0.8683   2.8388   0.00    0.0
2026/09/14 21:42:59.000   4426044.5286    -89428.5764   4576298.6602   5   7   4.2173   2.1697   4.2988  -1.9063   0.8687   2.8394   0.00    0.0
2026/09/14 21:43:00.000   4426044.6029    -89428.6060   4576298.7080   5   7   4.2172   2.1695   4.2993  -1.9058   0.8690   2.8400   0.00    0.0
2026/09/14 21:43:01.000   4426044.5893    -89428.6576   4576298.7079   5   7   4.2171   2.1693   4.2999  -1.9052   0.8694   2.8406   0.00    0.0
2026/09/14 21:43:02.000   4426044.9837    -89428.5703   4576299.0982   5   7   4.2169   2.1691   4.3005  -1.9047   0.8697   2.8412   0.00    0.0
2026/09/14 21:43:03.000   4426044.9946    -89428.5561   4576299.0545   5   7   4.2168   2.1689   4.3011  -1.9041   0.8701   2.8418   0.00    0.0
2026/09/14 21:43:04.000   4426044.8868    -89428.4897   4576299.0215   5   7   4.2167   2.1688   4.3016  -1.9036   0.8704   2.8425   0.00    0.0
2026/09/14 21:43:05.000   4426044.9130    -89428.4894   4576299.0513   5   7   4.2166   2.1686   4.3022  -1.9030   0.8708   2.8431   0.00    0.0
2026/09/14 21:43:06.000   4426045.1442    -89428.4637   4576299.1703   5   7   4.2165   2.1684   4.3028  -1.9025   0.8711   2.8437   0.00    0.0
2026/09/14 21:43:07.000   4426045.4998    -89428.4942   4576299.4234   5   7   4.2164   2.1682   4.3034  -1.9019   0.8715   2.8443   0.00    0.0
2026/09/14 21:43:08.000   4426045.6519    -89428.4522   4576299.5949   5   7   4.2162   2.1680   4.3039  -1.9014   0.8719   2.8449   0.00    0.0
2026/09/14 21:43:09.000   4426045.6382    -89428.4319   4576299.5146   5   7   4.2161   2.1678   4.3045  -1.9008   0.8722   2.8455   0.00    0.0
2026/09/14 21:43:10.000   4426045.6270    -89428.3049   4576299.5000   5   7   4.2160   2.1677   4.3051  -1.9002   0.8726   2.8462   0.00    0.0
2026/09/14 21:43:11.000   4426045.4926    -89428.3147   4576299.3967   5   7   4.2159   2.1675   4.3057  -1.8997   0.8729   2.8468   0.00    0.0
2026/09/14 21:43:12.000   4426045.2990    -89428.3344   4576299.3414   5   7   4.2158   2.1673   4.3063  -1.8991   0.8733   2.8474   0.00    0.0
2026/09/14 21:43:13.000   4426045.0997    -89428.4058   4576299.2410   5   7   4.2157   2.1671   4.3068  -1.8986   0.8736   2.8480   0.00    0.0
2026/09/14 21:43:14.000   4426045.0219    -89428.4809   4576299.1031   5   7   4.2156   2.1669   4.3074  -1.8980   0.8740   2.8486   0.00    0.0
2026/09/14 21:43:15.000   4426045.0968    -89428.4803   4576299.1287   5   7   4.2154   2.1668   4.3080  -1.8975   0.8744   2.8492   0.00    0.0
2026/09/14 21:43:16.000   4426045.1595    -89428.4128   4576299.1607   5   7   4.2153   2.1666   4.3086  -1.8969   0.8747   2.8498   0.00    0.0
2026/09/14 21:43:17.000   4426045.2861    -89428.4606   4576299.2941   5   7   4.2152   2.1664   4.3091  -1.8964   0.8751   2.8505   0.00    0.0
2026/09/14 21:43:18.000   4426045.3627    -89428.4377   4576299.3347   5   7   4.2151   2.1662   4.3097  -1.8958   0.8754   2.8511   0.00    0.0
2026/09/14 21:43:19.000   4426045.3914    -89428.4987   4576299.2169   5   7   4.2150   2.1660   4.3103  -1.8953   0.8758   2.8517   0.00    0.0
2026/09/14 21:43:20.000   4426045.1690    -89428.4479   4576299.0495   5   7   4.2149   2.1659   4.3109  -1.8947   0.8761   2.8523   0.00    0.0
2026/09/14 21:43:21.000   4426044.8797    -89428.3367   4576298.8422   5   7   4.2148   2.1657   4.3114  -1.8941   0.8765   2.8529   0.00    0.0
2026/09/14 21:43:22.000   4426044.8357    -89428.3114   4576298.6832   5   7   4.2147   2.1655   4.3120  -1.8936   0.8769   2.8535   0.00    0.0
2026/09/14 21:43:23.000   4426044.7387    -89428.2445   4576298.6201   5   7   4.2145   2.1653   4.3126  -1.8930   0.8772   2.8542   0.00    0.0
2026/09/14 21:43:24.000   4426044.6567    -89428.2522   4576298.5849   5   7   4.2144   2.1651   4.3132  -1.8925   0.8776   2.8548   0.00    0.0
2026/09/14 21:43:25.000   4426044.6265    -89428.2603   4576298.6544   5   7   4.2143   2.1649   4.3137  -1.8919   0.8779   2.8554   0.00    0.0
2026/09/14 21:43:26.000   4426044.8012    -89428.2714   4576298.8832   5   7   4.2142   2.1648   4.3143  -1.8914   0.8783   2.8560   0.00    0.0
2026/09/14 21:43:27.000   4426044.9733    -89428.2297   4576298.9363   5   7   4.2141   2.1646   4.3149  -1.8908   0.8786   2.8566   0.00    0.0
2026/09/14 21:43:28.000   4426045.0252    -89428.2605   4576298.9172   5   7   4.2140   2.1644   4.3155  -1.8903   0.8790   2.8572   0.00    0.0
2026/09/14 21:43:29.000   4426044.9612    -89428.2968   4576298.9119   5   7   4.2139   2.1642   4.3160  -1.8897   0.8794   2.8579   0.00    0.0
2026/09/14 21:43:30.000   4426044.9982    -89428.2655   4576298.8415   5   7   4.2138   2.1640   4.3166  -1.8892   0.8797   2.8585   0.00    0.0
2026/09/14 21:43:31.000   4426044.8947    -89428.1467   4576298.7454   5   7   4.2137   2.1639   4.3172  -1.8886   0.8801   2.8591   0.00    0.0
2026/09/14 21:43:32.000   4426044.9355    -89428.0761   4576298.8404   5   7   4.2136   2.1637   4.3178  -1.8880   0.8804   2.8597   0.00    0.0
2026/09/14 21:43:33.000   4426044.7636    -89428.0760   4576298.7142   5   7   4.2135   2.1635   4.3183  -1.8875   0.8808   2.8603   0.00    0.0
2026/09/14 21:43:34.000   4426044.6933    -89428.0971   4576298.7027   5   7   4.2133   2.1633   4.3189  -1.8869   0.8812   2.8609   0.00    0.0
2026/09/14 21:43:35.000   4426044.8752    -89427.9997   4576298.8475   5   7   4.2132   2.1632   4.3195  -1.8864   0.8815   2.8616   0.00    0.0
2026/09/14 21:43:36.000   4426044.9107    -89428.0267   4576298.8740   5   7   4.2131   2.1630   4.3201  -1.8858   0.8819   2.8622   0.00    0.0
2026/09/14 21:43:37.000   4426044.9458    -89428.0594   4576298.8468   5   7   4.2130   2.1628   4.3206  -1.8853   0.8822   2.8628   0.00    0.0
2026/09/14 21:43:38.000   4426044.9781    -89428.0487   4576298.9604   5   7   4.2129   2.1626   4.3212  -1.8847   0.8826   2.8634   0.00    0.0
2026/09/14 21:43:39.000   4426044.9689    -89428.0723   4576299.0150   5   7   4.2128   2.1624   4.3218  -1.8842   0.8829   2.8640   0.00    0.0
2026/09/14 21:43:40.000   4426044.9424    -89428.0946   4576299.0439   5   7   4.2127   2.1623   4.3223  -1.8836   0.8833   2.8646   0.00    0.0
2026/09/14 21:43:41.000   4426045.0035    -89428.1558   4576299.0799   5   7   4.2126   2.1621   4.3229  -1.8830   0.8837   2.8653   0.00    0.0
2026/09/14 21:43:42.000   4426045.3199    -89428.1963   4576299.3199   5   7   4.2125   2.1619   4.3235  -1.8825   0.8840   2.8659   0.00    0.0
2026/09/14 21:43:43.000   4426045.3768    -89428.1629   4576299.3364   5   7   4.2124   2.1617   4.3241  -1.8819   0.8844   2.8665   0.00    0.0
2026/09/14 21:43:44.000   4426045.2260    -89428.1574   4576299.2452   5   7   4.2123   2.1615   4.3246  -1.8814   0.8847   2.8671   0.00    0.0
2026/09/14 21:43:45.000   4426045.3013    -89428.0770   4576299.4107   5   7   4.2122   2.1614   4.3252  -1.8808   0.8851   2.8677   0.00    0.0
2026/09/14 21:43:46.000   4426045.1653    -89428.1422   4576299.3118   5   7   4.2121   2.1612   4.3258  -1.8803   0.8854   2.8684   0.00    0.0
2026/09/14 21:43:47.000   4426045.1619    -89428.2101   4576299.2057   5   7   4.2120   2.1610   4.3264  -1.8797   0.8858   2.8690   0.00    0.0
2026/09/14 21:43:48.000   4426045.0167    -89428.2710   4576299.1389   5   7   4.2119   2.1608   4.3269  -1.8792   0.8862   2.8696   0.00    0.0
2026/09/14 21:43:49.000   4426045.1431    -89428.2294   4576299.2038   5   7   4.2118   2.1607   4.3275  -1.8786   0.8865   2.8702   0.00    0.0
2026/09/14 21:43:50.000   4426045.1446    -89428.2997   4576299.2677   5   7   4.2117   2.1605   4.3281  -1.8780   0.8869   2.8708   0.00    0.0
2026/09/14 21:43:51.000   4426045.1399    -89428.4335   4576299.2824   5   7   4.2116   2.1603   4.3286  -1.8775   0.8872   2.8714   0.00    0.0
2026/09/14 21:43:52.000   4426045.0059    -89428.4194   4576299.2405   5   7   4.2115   2.1601   4.3292  -1.8769   0.8876   2.8721   0.00    0.0
2026/09/14 21:43:53.000   4426044.9248    -89428.4397   4576299.1832   5   7   4.2114   2.1599   4.3298  -1.8764   0.8879   2.8727   0.00    0.0
2026/09/14 21:43:54.000   4426045.0670    -89428.4229   4576299.3432   5   7   4.2113   2.1598   4.3304  -1.8758   0.8883   2.8733   0.00    0.0
2026/09/14 21:43:55.000   4426045.0750    -89428.3734   4576299.4535   5   7   4.2112   2.1596   4.3309  -1.8753   0.8887   2.8739   0.00    0.0
2026/09/14 21:43:56.000   4426045.1470    -89428.3589   4576299.5569   5   7   4.2111   2.1594   4.3315  -1.8747   0.8890   2.8745   0.00    0.0
2026/09/14 21:43:57.000   4426045.6357    -89428.3524   4576299.9573   5   7   4.2110   2.1592   4.3321  -1.8741   0.8894   2.8751   0.00    0.0
2026/09/14 21:43:58.000   4426045.6978    -89428.4096   4576299.9513   5   7   4.2109   2.1591   4.3327  -1.8736   0.8897   2.8758   0.00    0.0
2026/09/14 21:43:59.000   4426045.7742    -89428.4536   4576299.9298   5   7   4.2108   2.1589   4.3332  -1.8730   0.8901   2.8764   0.00    0.0
2026/09/14 21:44:00.000   4426045.5077    -89428.4578   4576299.7576   5   7   4.2107   2.1587   4.3338  -1.8725   0.8905   2.8770   0.00    0.0
2026/09/14 21:44:01.000   4426045.2480    -89428.4758   4576299.5616   5   7   4.2106   2.1585   4.3344  -1.8719   0.8908   2.8776   0.00    0.0
2026/09/14 21:44:02.000   4426045.1053    -89428.4562   4576299.5435   5   7   4.2105   2.1584   4.3349  -1.8714   0.8912   2.8782   0.00    0.0
2026/09/14 21:44:03.000   4426044.9164    -89428.5229   4576299.3651   5   7   4.2104   2.1582   4.3355  -1.8708   0.8915   2.8789   0.00    0.0
2026/09/14 21:44:04.000   4426044.7307    -89428.5144   4576299.2403   5   7   4.2103   2.1580   4.3361  -1.8702   0.8919   2.8795   0.00    0.0
2026/09/14 21:44:05.000   4426044.7265    -89428.4363   4576299.2818   5   7   4.2102   2.1578   4.3367  -1.8697   0.8922   2.8801   0.00    0.0
2026/09/14 21:44:06.000   4426044.7336    -89428.4587   4576299.2850   5   7   4.2101   2.1576   4.3372  -1.8691   0.8926   2.8807   0.00    0.0
2026/09/14 21:44:07.000   4426044.7523    -89428.4841   4576299.2868   5   7   4.2100   2.1575   4.3378  -1.8686   0.8930   2.8813   0.00    0.0
2026/09/14 21:44:08.000   4426044.7747    -89428.4442   4576299.3980   5   7   4.2099   2.1573   4.3384  -1.8680   0.8933   2.8819   0.00    0.0
2026/09/14 21:44:09.000   4426044.6622    -89428.3238   4576299.3692   5   7   4.2098   2.1571   4.3389  -1.8675   0.8937   2.8826   0.00    0.0
2026/09/14 21:44:10.000   4426044.5639    -89428.3114   4576299.2535   5   7   4.2097   2.1569   4.3395  -1.8669   0.8940   2.8832   0.00    0.0
2026/09/14 21:44:11.000   4426044.8631    -89428.3840   4576299.4687   5   7   4.2096   2.1568   4.3401  -1.8663   0.8944   2.8838   0.00    0.0
2026/09/14 21:44:12.000   4426044.7349    -89428.3566   4576299.4675   5   7   4.2095   2.1566   4.3406  -1.8658   0.8948   2.8844   0.00    0.0
2026/09/14 21:44:13.000   4426044.9597    -89428.3567   4576299.5290   5   7   4.2094   2.1564   4.3412  -1.8652   0.8951   2.8850   0.00    0.0
2026/09/14 21:44:14.000   4426045.0340    -89428.4566   4576299.4899   5   7   4.2093   2.1562   4.3418  -1.8647   0.8955   2.8856   0.00    0.0
2026/09/14 21:44:15.000   4426045.0054    -89428.4896   4576299.4470   5   7   4.2092   2.1561   4.3424  -1.8641   0.8958   2.8863   0.00    0.0
2026/09/14 21:44:16.000   4426045.0851    -89428.4343   4576299.5897   5   7   4.2091   2.1559   4.3429  -1.8636   0.8962   2.8869   0.00    0.0
2026/09/14 21:44:17.000   4426044.9634    -89428.3821   4576299.4949   5   7   4.2090   2.1557   4.3435  -1.8630   0.8965   2.8875   0.00    0.0
2026/09/14 21:44:18.000   4426044.8985    -89428.2914   4576299.5001   5   7   4.2089   2.1555   4.3441  -1.8624   0.8969   2.8881   0.00    0.0
2026/09/14 21:44:19.000   4426044.7686    -89428.2122   4576299.4808   5   7   4.2088   2.1554   4.3446  -1.8619   0.8973   2.8887   0.00    0.0
2026/09/14 21:44:20.000   4426044.7274    -89428.1900   4576299.4689   5   7   4.2087   2.1552   4.3452  -1.8613   0.8976   2.8894   0.00    0.0
2026/09/14 21:44:21.000   4426044.5082    -89428.2371   4576299.3074   5   7   4.2086   2.1550   4.3458  -1.8608   0.8980   2.8900   0.00    0.0
2026/09/14 21:44:22.000   4426044.6239    -89428.2257   4576299.4148   5   7   4.2086   2.1548   4.3463  -1.8602   0.8983   2.8906   0.00    0.0
2026/09/14 21:44:23.000   4426044.6550    -89428.2293   4576299.4170   5   7   4.2085   2.1547   4.3469  -1.8597   0.8987   2.8912   0.00    0.0
2026/09/14 21:44:24.000   4426044.6033    -89428.2568   4576299.4004   5   7   4.2084   2.1545   4.3475  -1.8591   0.8991   2.8918   0.00    0.0
2026/09/14 21:44:25.000   4426044.6701    -89428.2844   4576299.4034   5   7   4.2083   2.1543   4.3481  -1.8585   0.8994   2.8924   0.00    0.0
2026/09/14 21:44:26.000   4426044.6186    -89428.3081   4576299.4088   5   7   4.2082   2.1541   4.3486  -1.8580   0.8998   2.8931   0.00    0.0
2026/09/14 21:44:27.000   4426044.7327    -89428.3710   4576299.5332   5   7   4.2081   2.1540   4.3492  -1.8574   0.9001   2.8937   0.00    0.0
2026/09/14 21:44:28.000   4426044.7812    -89428.3200   4576299.4985   5   7   4.2080   2.1538   4.3498  -1.8569   0.9005   2.8943   0.00    0.0
2026/09/14 21:44:29.000   4426044.7647    -89428.3224   4576299.5790   5   7   4.2079   2.1536   4.3503  -1.8563   0.9009   2.8949   0.00    0.0
2026/09/14 21:44:30.000   4426044.6755    -89428.2573   4576299.4921   5   7   4.2078   2.1535   4.3509  -1.8557   0.9012   2.8955   0.00    0.0
2026/09/14 21:44:31.000   4426044.7378    -89428.2265   4576299.6016   5   7   4.2077   2.1533   4.3515  -1.8552   0.9016   2.8962   0.00    0.0
2026/09/14 21:44:32.000   4426044.7988    -89428.1831   4576299.6715   5   7   4.2076   2.1531   4.3520  -1.8546   0.9019   2.8968   0.00    0.0
2026/09/14 21:44:33.000   4426044.7699    -89428.1739   4576299.6767   5   7   4.2076   2.1529   4.3526  -1.8541   0.9023   2.8974   0.00    0.0
2026/09/14 21:44:34.000   4426044.7041    -89428.0787   4576299.6263   5   7   4.2075   2.1528   4.3532  -1.8535   0.9026   2.8980   0.00    0.0
2026/09/14 21:44:35.000   4426044.6888    -89428.0722   4576299.6642   5   7   4.2074   2.1526   4.3537  -1.8529   0.9030   2.8986   0.00    0.0
2026/09/14 21:44:36.000   4426044.7117    -89428.1454   4576299.6134   5   7   4.2073   2.1524   4.3543  -1.8524   0.9034   2.8992   0.00    0.0
2026/09/14 21:44:37.000   4426044.5373    -89428.2442   4576299.3518   5   7   4.2072   2.1522   4.3549  -1.8518   0.9037   2.8999   0.00    0.0
2026/09/14 21:44:38.000   4426044.4922    -89428.2144   4576299.3627   5   7   4.2071   2.1521   4.3554  -1.8513   0.9041   2.9005   0.00    0.0
2026/09/14 21:44:39.000   4426044.5902    -89428.2800   4576299.4367   5   7   4.2070   2.1519   4.3560  -1.8507   0.9044   2.9011   0.00    0.0
2026/09/14 21:44:40.000   4426044.6148    -89428.3546   4576299.2901   5   7   4.2069   2.1517   4.3566  -1.8502   0.9048   2.9017   0.00    0.0
2026/09/14 21:44:41.000   4426044.7830    -89428.3935   4576299.3383   5   7   4.2069   2.1516   4.3571  -1.8496   0.9052   2.9023   0.00    0.0
2026/09/14 21:44:42.000   4426044.8718    -89428.3348   4576299.4204   5   7   4.2068   2.1514   4.3577  -1.8490   0.9055   2.9030   0.00    0.0
2026/09/14 21:44:43.000   4426044.8328    -89428.3689   4576299.3838   5   7   4.2067   2.1512   4.3583  -1.8485   0.9059   2.9036   0.00    0.0
2026/09/14 21:44:44.000   4426044.8276    -89428.3265   4576299.3869   5   7   4.2066   2.1510   4.3588  -1.8479   0.9062   2.9042   0.00    0.0
2026/09/14 21:44:45.000   4426044.8350    -89428.3175   4576299.3809   5   7   4.2065   2.1509   4.3594  -1.8474   0.9066   2.9048   0.00    0.0
2026/09/14 21:44:46.000   4426044.8068    -89428.2903   4576299.3467   5   7   4.2064   2.1507   4.3600  -1.8468   0.9070   2.9054   0.00    0.0
2026/09/14 21:44:47.000   4426045.0099    -89428.2641   4576299.4658   5   7   4.2063   2.1505   4.3605  -1.8462   0.9073   2.9061   0.00    0.0
2026/09/14 21:44:48.000   4426045.1007    -89428.2470   4576299.4869   5   7   4.2063   2.1504   4.3611  -1.8457   0.9077   2.9067   0.00    0.0
2026/09/14 21:44:49.000   4426045.2619    -89428.2454   4576299.6331   5   7   4.2062   2.1502   4.3617  -1.8451   0.9080   2.9073   0.00    0.0
2026/09/14 21:44:50.000   4426045.0619    -89428.2716   4576299.5208   5   7   4.2061   2.1500   4.3622  -1.8446   0.9084   2.9079   0.00    0.0
2026/09/14 21:44:51.000   4426044.8359    -89428.2713   4576299.4276   5   7   4.2060   2.1498   4.3628  -1.8440   0.9087   2.9085   0.00    0.0
2026/09/14 21:44:52.000   4426044.8350    -89428.2588   4576299.5171   5   7   4.2059   2.1497   4.3634  -1.8434   0.9091   2.9091   0.00    0.0
2026/09/14 21:44:53.000   4426044.8477    -89428.2795   4576299.6069   5   7   4.2058   2.1495   4.3639  -1.8429   0.9095   2.9098   0.00    0.0
2026/09/14 21:44:54.000   4426044.8570    -89428.1992   4576299.6701   5   7   4.2058   2.1493   4.3645  -1.8423   0.9098   2.9104   0.00    0.0
2026/09/14 21:44:55.000   4426044.7850    -89428.2299   4576299.5586   5   7   4.2057   2.1492   4.3651  -1.8418   0.9102   2.9110   0.00    0.0
2026/09/14 21:44:56.000   4426044.7049    -89428.2173   4576299.5385   5   7   4.2056   2.1490   4.3656  -1.8412   0.9105   2.9116   0.00    0.0
2026/09/14 21:44:57.000   4426044.7971    -89428.2207   4576299.5190   5   7   4.2055   2.1488   4.3662  -1.8406   0.9109   2.9122   0.00    0.0
2026/09/14 21:44:58.000   4426044.7848    -89428.2885   4576299.4798   5   7   4.2054   2.1486   4.3668  -1.8401   0.9113   2.9129   0.00    0.0
2026/09/14 21:44:59.000   4426044.8953    -89428.3202   4576299.5687   5   7   4.2054   2.1485   4.3673  -1.8395   0.9116   2.9135   0.00    0.0
2026/09/14 21:45:00.000   4426044.9537    -89428.3619   4576299.4468   5   7   4.2053   2.1483   4.3679  -1.8390   0.9120   2.9141   0.00    0.0
2026/09/14 21:45:01.000   4426044.8885    -89428.3971   4576299.3962   5   7   4.2052   2.1481   4.3685  -1.8384   0.9123   2.9147   0.00    0.0
2026/09/14 21:45:02.000   4426044.6974    -89428.4017   4576299.2378   5   7   4.2051   2.1480   4.3690  -1.8378   0.9127   2.9153   0.00    0.0
2026/09/14 21:45:03.000   4426044.6561    -89428.4363   4576299.1795   5   7   4.2050   2.1478   4.3696  -1.8373   0.9131   2.9160   0.00    0.0
2026/09/14 21:45:04.000   4426044.7712    -89428.4355   4576299.2450   5   7   4.2049   2.1476   4.3701  -1.8367   0.9134   2.9166   0.00    0.0
2026/09/14 21:45:05.000   4426044.8396    -89428.4966   4576299.1464   5   7   4.2049   2.1475   4.3707  -1.8361   0.9138   2.9172   0.00    0.0
2026/09/14 21:45:06.000   4426044.8586    -89428.4473   4576299.2084   5   7   4.2048   2.1473   4.3713  -1.8356   0.9141   2.9178   0.00    0.0
2026/09/14 21:45:07.000   4426045.0177    -89428.4300   4576299.3249   5   7   4.2047   2.1471   4.3718  -1.8350   0.9145   2.9184   0.00    0.0
2026/09/14 21:45:08.000   4426044.8670    -89428.3906   4576299.2528   5   7   4.2046   2.1469   4.3724  -1.8345   0.9149   2.9190   0.00    0.0
2026/09/14 21:45:09.000   4426044.8081    -89428.4052   4576299.0710   5   7   4.2046   2.1468   4.3730  -1.8339   0.9152   2.9197   0.00    0.0
2026/09/14 21:45:10.000   4426045.0330    -89428.3807   4576299.2480   5   7   4.2045   2.1466   4.3735  -1.8333   0.9156   2.9203   0.00    0.0
2026/09/14 21:45:11.000   4426044.9424    -89428.3663   4576299.2359   5   7   4.2044   2.1464   4.3741  -1.8328   0.9159   2.9209   0.00    0.0
2026/09/14 21:45:12.000   4426045.2466    -89428.3881   4576299.4158   5   7   4.2043   2.1463   4.3747  -1.8322   0.9163   2.9215   0.00    0.0
2026/09/14 21:45:13.000   4426045.2035    -89428.4361   4576299.3417   5   7   4.2042   2.1461   4.3752  -1.8317   0.9167   2.9221   0.00    0.0
2026/09/14 21:45:14.000   4426045.2188    -89428.4767   4576299.3359   5   7   4.2042   2.1459   4.3758  -1.8311   0.9170   2.9228   0.00    0.0
2026/09/14 21:45:15.000   4426045.4137    -89428.4593   4576299.5706   5   7   4.2041   2.1458   4.3763  -1.8305   0.9174   2.9234   0.00    0.0
2026/09/14 21:45:16.000   4426045.3464    -89428.4565   4576299.4622   5   7   4.2040   2.1456   4.3769  -1.8300   0.9177   2.9240   0.00    0.0
2026/09/14 21:45:17.000   4426045.1877    -89428.4824   4576299.4043   5   7   4.2039   2.1454   4.3775  -1.8294   0.9181   2.9246   0.00    0.0
2026/09/14 21:45:18.000   4426045.1266    -89428.4252   4576299.4294   5   7   4.2039   2.1453   4.3780  -1.8289   0.9185   2.9252   0.00    0.0
2026/09/14 21:45:19.000   4426044.9364    -89428.5027   4576299.1138   5   7   4.2038   2.1451   4.3786  -1.8283   0.9188   2.9258   0.00    0.0
2026/09/14 21:45:20.000   4426044.9099    -89428.5001   4576298.9965   5   7   4.2037   2.1449   4.3792  -1.8277   0.9192   2.9265   0.00    0.0
2026/09/14 21:45:21.000   4426044.8927    -89428.4951   4576298.9943   5   7   4.2036   2.1448   4.3797  -1.8272   0.9195   2.9271   0.00    0.0
2026/09/14 21:45:22.000   4426044.8761    -89428.5642   4576298.8666   5   7   4.2036   2.1446   4.3803  -1.8266   0.9199   2.9277   0.00    0.0
2026/09/14 21:45:23.000   4426044.8312    -89428.5043   4576298.8285   5   7   4.2035   2.1444   4.3808  -1.8260   0.9203   2.9283   0.00    0.0
2026/09/14 21:45:24.000   4426044.9498    -89428.4608   4576298.8701   5   7   4.2034   2.1443   4.3814  -1.8255   0.9206   2.9289   0.00    0.0
2026/09/14 21:45:25.000   4426044.9045    -89428.4867   4576298.9055   5   7   4.2033   2.1441   4.3820  -1.8249   0.9210   2.9296   0.00    0.0
2026/09/14 21:45:26.000   4426044.9844    -89428.5261   4576298.9994   5   7   4.2033   2.1439   4.3825  -1.8244   0.9213   2.9302   0.00    0.0
2026/09/14 21:45:27.000   4426044.9164    -89428.5975   4576298.9544   5   7   4.2032   2.1437   4.3831  -1.8238   0.9217   2.9308   0.00    0.0
2026/09/14 21:45:28.000   4426045.0055    -89428.5950   4576299.1160   5   7   4.2031   2.1436   4.3837  -1.8232   0.9221   2.9314   0.00    0.0
2026/09/14 21:45:29.000   4426045.0715    -89428.5768   4576299.2932   5   7   4.2031   2.1434   4.3842  -1.8227   0.9224   2.9320   0.00    0.0
2026/09/14 21:45:30.000   4426044.9657    -89428.5102   4576299.2528   5   7   4.2030   2.1432   4.3848  -1.8221   0.9228   2.9327   0.00    0.0
2026/09/14 21:45:31.000   4426045.0733    -89428.5223   4576299.2727   5   7   4.2029   2.1431   4.3853  -1.8215   0.9231   2.9333   0.00    0.0
2026/09/14 21:45:32.000   4426045.0592    -89428.5232   4576299.2928   5   7   4.2028   2.1429   4.3859  -1.8210   0.9235   2.9339   0.00    0.0
2026/09/14 21:45:33.000   4426044.8592    -89428.5046   4576299.0969   5   7   4.2028   2.1427   4.3865  -1.8204   0.9239   2.9345   0.00    0.0
2026/09/14 21:45:34.000   4426045.0879    -89428.4732   4576299.1922   5   7   4.2027   2.1426   4.3870  -1.8199   0.9242   2.9351   0.00    0.0
2026/09/14 21:45:35.000   4426045.1340    -89428.4888   4576299.1813   5   7   4.2026   2.1424   4.3876  -1.8193   0.9246   2.9357   0.00    0.0
2026/09/14 21:45:36.000   4426045.1954    -89428.5137   4576299.2394   5   7   4.2026   2.1422   4.3881  -1.8187   0.9249   2.9364   0.00    0.0
2026/09/14 21:45:37.000   4426044.9456    -89428.5169   4576299.1043   5   7   4.2025   2.1421   4.3887  -1.8182   0.9253   2.9370   0.00    0.0
2026/09/14 21:45:38.000   4426044.8562    -89428.4840   4576299.0373   5   7   4.2024   2.1419   4.3893  -1.8176   0.9257   2.9376   0.00    0.0
2026/09/14 21:45:39.000   4426044.8232    -89428.5524   4576299.1094   5   7   4.2024   2.1418   4.3898  -1.8170   0.9260   2.9382   0.00    0.0
2026/09/14 21:45:40.000   4426044.9833    -89428.5090   4576299.3600   5   7   4.2023   2.1416   4.3904  -1.8165   0.9264   2.9388   0.00    0.0
2026/09/14 21:45:41.000   4426045.1205    -89428.6446   4576299.4751   5   7   4.2022   2.1414   4.3909  -1.8159   0.9267   2.9395   0.00    0.0
2026/09/14 21:45:42.000   4426045.0576    -89428.6575   4576299.3725   5   7   4.2022   2.1413   4.3915  -1.8153   0.9271   2.9401   0.00    0.0
2026/09/14 21:45:43.000   4426045.0764    -89428.5831   4576299.3577   5   7   4.2021   2.1411   4.3920  -1.8148   0.9275   2.9407   0.00    0.0
2026/09/14 21:45:44.000   4426045.1318    -89428.6370   4576299.5126   5   7   4.2020   2.1409   4.3926  -1.8142   0.9278   2.9413   0.00    0.0
2026/09/14 21:45:45.000   4426045.1645    -89428.6008   4576299.5849   5   7   4.2019   2.1408   4.3932  -1.8137   0.9282   2.9419   0.00    0.0
2026/09/14 21:45:46.000   4426045.2594    -89428.5634   4576299.7061   5   7   4.2019   2.1406   4.3937  -1.8131   0.9285   2.9426   0.00    0.0
2026/09/14 21:45:47.000   4426045.1392    -89428.5625   4576299.5990   5   7   4.2018   2.1404   4.3943  -1.8125   0.9289   2.9432   0.00    0.0
2026/09/14 21:45:48.000   4426045.3154    -89428.5678   4576299.5953   5   7   4.2017   2.1403   4.3948  -1.8120   0.9293   2.9438   0.00    0.0
2026/09/14 21:45:49.000   4426045.4261    -89428.5527   4576299.5868   5   7   4.2017   2.1401   4.3954  -1.8114   0.9296   2.9444   0.00    0.0
2026/09/14 21:45:50.000   4426045.5016    -89428.4474   4576299.7141   5   7   4.2016   2.1399   4.3960  -1.8108   0.9300   2.9450   0.00    0.0
2026/09/14 21:45:51.000   4426045.2858    -89428.4404   4576299.5929   5   7   4.2016   2.1398   4.3965  -1.8103   0.9303   2.9456   0.00    0.0
2026/09/14 21:45:52.000   4426045.3190    -89428.4489   4576299.6699   5   7   4.2015   2.1396   4.3971  -1.8097   0.9307   2.9463   0.00    0.0
2026/09/14 21:45:53.000   4426045.3251    -89428.4486   4576299.6772   5   7   4.2014   2.1394   4.3976  -1.8091   0.9311   2.9469   0.00    0.0
2026/09/14 21:45:54.000   4426045.2682    -89428.4015   4576299.6687   5   7   4.2014   2.1393   4.3982  -1.8086   0.9314   2.9475   0.00    0.0
2026/09/14 21:45:55.000   4426045.0297    -89428.3640   4576299.4811   5   7   4.2013   2.1391   4.3987  -1.8080   0.9318   2.9481   0.00    0.0
2026/09/14 21:45:56.000   4426045.1904    -89428.3627   4576299.7137   5   7   4.2012   2.1389   4.3993  -1.8074   0.9321   2.9487   0.00    0.0
2026/09/14 21:45:57.000   4426045.3282    -89428.4125   4576299.6582   5   7   4.2012   2.1388   4.3999  -1.8069   0.9325   2.9494   0.00    0.0
2026/09/14 21:45:58.000   4426045.2453    -89428.3915   4576299.7206   5   7   4.2011   2.1386   4.4004  -1.8063   0.9329   2.9500   0.00    0.0
2026/09/14 21:45:59.000   4426045.1076    -89428.3602   4576299.6953   5   7   4.2010   2.1385   4.4010  -1.8058   0.9332   2.9506   0.00    0.0
2026/09/14 21:46:00.000   4426045.1163    -89428.3821   4576299.6833   5   7   4.2010   2.1383   4.4015  -1.8052   0.9336   2.9512   0.00    0.0
2026/09/14 21:46:01.000   4426045.2086    -89428.4153   4576299.6150   5   7   4.2009   2.1381   4.4021  -1.8046   0.9339   2.9518   0.00    0.0
2026/09/14 21:46:02.000   4426045.3365    -89428.4578   4576299.6520   5   7   4.2009   2.1380   4.4026  -1.8041   0.9343   2.9524   0.00    0.0
2026/09/14 21:46:03.000   4426045.2458    -89428.5351   4576299.5637   5   7   4.2008   2.1378   4.4032  -1.8035   0.9347   2.9531   0.00    0.0
2026/09/14 21:46:04.000   4426045.0953    -89428.5304   4576299.4464   5   7   4.2007   2.1376   4.4037  -1.8029   0.9350   2.9537   0.00    0.0
2026/09/14 21:46:05.000   4426044.9430    -89428.5164   4576299.3479   5   7   4.2007   2.1375   4.4043  -1.8024   0.9354   2.9543   0.00    0.0
2026/09/14 21:46:06.000   4426044.7747    -89428.5211   4576299.3121   5   7   4.2006   2.1373   4.4049  -1.8018   0.9357   2.9549   0.00    0.0
2026/09/14 21:46:07.000   4426045.0037    -89428.5639   4576299.3672   5   7   4.2005   2.1371   4.4054  -1.8012   0.9361   2.9555   0.00    0.0
2026/09/14 21:46:08.000   4426045.0230    -89428.5392   4576299.5180   5   7   4.2005   2.1370   4.4060  -1.8007   0.9365   2.9562   0.00    0.0
2026/09/14 21:46:09.000   4426045.2057    -89428.5697   4576299.6446   5   7   4.2004   2.1368   4.4065  -1.8001   0.9368   2.9568   0.00    0.0
2026/09/14 21:46:10.000   4426045.1534    -89428.5179   4576299.6267   5   7   4.2004   2.1367   4.4071  -1.7995   0.9372   2.9574   0.00    0.0
2026/09/14 21:46:11.000   4426045.0585    -89428.4962   4576299.6665   5   7   4.2003   2.1365   4.4076  -1.7990   0.9375   2.9580   0.00    0.0
2026/09/14 21:46:12.000   4426044.9214    -89428.5105   4576299.5248   5   7   4.2003   2.1363   4.4082  -1.7984   0.9379   2.9586   0.00    0.0
2026/09/14 21:46:13.000   4426044.8713    -89428.4420   4576299.4183   5   7   4.2002   2.1362   4.4087  -1.7978   0.9383   2.9592   0.00    0.0
2026/09/14 21:46:14.000   4426045.0973    -89428.3697   4576299.6057   5   7   4.2001   2.1360   4.4093  -1.7973   0.9386   2.9599   0.00    0.0
2026/09/14 21:46:15.000   4426044.9210    -89428.4448   4576299.4534   5   7   4.2001   2.1358   4.4099  -1.7967   0.9390   2.9605   0.00    0.0
2026/09/14 21:46:16.000   4426044.8574    -89428.5030   4576299.3282   5   7   4.2000   2.1357   4.4104  -1.7961   0.9393   2.9611   0.00    0.0
2026/09/14 21:46:17.000   4426045.1210    -89428.5345   4576299.4547   5   7   4.2000   2.1355   4.4110  -1.7956   0.9397   2.9617   0.00    0.0
2026/09/14 21:46:18.000   4426045.0431    -89428.5688   4576299.4964   5   7   4.1999   2.1354   4.4115  -1.7950   0.9401   2.9623   0.00    0.0
2026/09/14 21:46:19.000   4426045.0413    -89428.5452   4576299.5510   5   7   4.1998   2.1352   4.4121  -1.7944   0.9404   2.9630   0.00    0.0
2026/09/14 21:46:20.000   4426044.8768    -89428.5487   4576299.3798   5   7   4.1998   2.1350   4.4126  -1.7939   0.9408   2.9636   0.00    0.0
2026/09/14 21:46:21.000   4426044.8243    -89428.6262   4576299.3047   5   7   4.1997   2.1349   4.4132  -1.7933   0.9411   2.9642   0.00    0.0
2026/09/14 21:46:22.000   4426044.9030    -89428.6049   4576299.3240   5   7   4.1997   2.1347   4.4137  -1.7927   0.9415   2.9648   0.00    0.0
